<?xml version="1.0" encoding="UTF-8" ?>
<gpx version="1.1" xmlns:xsi="http://www.w3.org/2001/XMLSchema-instance" 
    xmlns="http://www.topografix.com/GPX/1/1"
    xsi:schemaLocation="http://www.topografix.com/GPX/1/1 http://www.topografix.com/GPX/1/1/gpx.xsd" 
    creator="Openrunner - https://www.openrunner.com" >
				<wpt lat="42.537239" lon="2.432842">
				 	<ele>0</ele>
				 	<name><![CDATA[Ravitaillement]]></name>
				 	<desc><![CDATA[]]></desc>
					<sym>3</sym>
				</wpt>
			
				<wpt lat="42.533916" lon="2.454386">
				 	<ele>0</ele>
				 	<name><![CDATA[Bouteille d'eau]]></name>
				 	<desc><![CDATA[]]></desc>
					<sym>104</sym>
				</wpt>
				<trk>
	                   <name>Double kv canigou SITE OFFICIEL-18109515</name>
						<trkseg>
					<trkpt lat="42.550520" lon="2.399980">
						<ele>741</ele>
						<time>2025-07-16T17:47:29Z</time>
					</trkpt>
					<trkpt lat="42.550520" lon="2.400310">
						<ele>745</ele>
						<time>2025-07-16T17:47:41Z</time>
					</trkpt>
					<trkpt lat="42.550490" lon="2.400750">
						<ele>751</ele>
						<time>2025-07-16T17:47:57Z</time>
					</trkpt>
					<trkpt lat="42.550470" lon="2.400880">
						<ele>753</ele>
						<time>2025-07-16T17:48:02Z</time>
					</trkpt>
					<trkpt lat="42.550430" lon="2.400990">
						<ele>755</ele>
						<time>2025-07-16T17:48:07Z</time>
					</trkpt>
					<trkpt lat="42.550280" lon="2.401230">
						<ele>761</ele>
						<time>2025-07-16T17:48:18Z</time>
					</trkpt>
					<trkpt lat="42.550260" lon="2.401290">
						<ele>762</ele>
						<time>2025-07-16T17:48:21Z</time>
					</trkpt>
					<trkpt lat="42.550280" lon="2.401390">
						<ele>762</ele>
						<time>2025-07-16T17:48:25Z</time>
					</trkpt>
					<trkpt lat="42.550420" lon="2.401560">
						<ele>760</ele>
						<time>2025-07-16T17:48:34Z</time>
					</trkpt>
					<trkpt lat="42.550490" lon="2.401760">
						<ele>761</ele>
						<time>2025-07-16T17:48:42Z</time>
					</trkpt>
					<trkpt lat="42.550520" lon="2.401980">
						<ele>763</ele>
						<time>2025-07-16T17:48:51Z</time>
					</trkpt>
					<trkpt lat="42.550520" lon="2.402500">
						<ele>768</ele>
						<time>2025-07-16T17:49:10Z</time>
					</trkpt>
					<trkpt lat="42.550320" lon="2.403050">
						<ele>777</ele>
						<time>2025-07-16T17:49:32Z</time>
					</trkpt>
					<trkpt lat="42.550230" lon="2.403220">
						<ele>780</ele>
						<time>2025-07-16T17:49:40Z</time>
					</trkpt>
					<trkpt lat="42.550130" lon="2.403360">
						<ele>783</ele>
						<time>2025-07-16T17:49:47Z</time>
					</trkpt>
					<trkpt lat="42.550040" lon="2.403390">
						<ele>785</ele>
						<time>2025-07-16T17:49:52Z</time>
					</trkpt>
					<trkpt lat="42.549970" lon="2.403480">
						<ele>787</ele>
						<time>2025-07-16T17:49:57Z</time>
					</trkpt>
					<trkpt lat="42.549820" lon="2.403740">
						<ele>794</ele>
						<time>2025-07-16T17:50:09Z</time>
					</trkpt>
					<trkpt lat="42.549680" lon="2.403930">
						<ele>800</ele>
						<time>2025-07-16T17:50:19Z</time>
					</trkpt>
					<trkpt lat="42.549600" lon="2.404140">
						<ele>804</ele>
						<time>2025-07-16T17:50:27Z</time>
					</trkpt>
					<trkpt lat="42.549510" lon="2.404600">
						<ele>807</ele>
						<time>2025-07-16T17:50:45Z</time>
					</trkpt>
					<trkpt lat="42.549470" lon="2.404550">
						<ele>809</ele>
						<time>2025-07-16T17:50:48Z</time>
					</trkpt>
					<trkpt lat="42.549450" lon="2.404350">
						<ele>810</ele>
						<time>2025-07-16T17:50:55Z</time>
					</trkpt>
					<trkpt lat="42.549440" lon="2.404080">
						<ele>810</ele>
						<time>2025-07-16T17:51:05Z</time>
					</trkpt>
					<trkpt lat="42.549400" lon="2.403800">
						<ele>810</ele>
						<time>2025-07-16T17:51:16Z</time>
					</trkpt>
					<trkpt lat="42.549370" lon="2.403760">
						<ele>811</ele>
						<time>2025-07-16T17:51:18Z</time>
					</trkpt>
					<trkpt lat="42.549340" lon="2.403780">
						<ele>812</ele>
						<time>2025-07-16T17:51:19Z</time>
					</trkpt>
					<trkpt lat="42.549330" lon="2.403840">
						<ele>813</ele>
						<time>2025-07-16T17:51:22Z</time>
					</trkpt>
					<trkpt lat="42.549270" lon="2.403890">
						<ele>815</ele>
						<time>2025-07-16T17:51:25Z</time>
					</trkpt>
					<trkpt lat="42.549210" lon="2.403880">
						<ele>817</ele>
						<time>2025-07-16T17:51:28Z</time>
					</trkpt>
					<trkpt lat="42.549130" lon="2.403810">
						<ele>820</ele>
						<time>2025-07-16T17:51:33Z</time>
					</trkpt>
					<trkpt lat="42.549110" lon="2.403810">
						<ele>821</ele>
						<time>2025-07-16T17:51:34Z</time>
					</trkpt>
					<trkpt lat="42.549120" lon="2.403960">
						<ele>821</ele>
						<time>2025-07-16T17:51:40Z</time>
					</trkpt>
					<trkpt lat="42.549110" lon="2.404090">
						<ele>823</ele>
						<time>2025-07-16T17:51:44Z</time>
					</trkpt>
					<trkpt lat="42.549020" lon="2.404400">
						<ele>825</ele>
						<time>2025-07-16T17:51:57Z</time>
					</trkpt>
					<trkpt lat="42.548980" lon="2.404450">
						<ele>826</ele>
						<time>2025-07-16T17:51:59Z</time>
					</trkpt>
					<trkpt lat="42.548960" lon="2.404450">
						<ele>826</ele>
						<time>2025-07-16T17:52:00Z</time>
					</trkpt>
					<trkpt lat="42.548940" lon="2.404410">
						<ele>828</ele>
						<time>2025-07-16T17:52:02Z</time>
					</trkpt>
					<trkpt lat="42.548810" lon="2.404350">
						<ele>833</ele>
						<time>2025-07-16T17:52:09Z</time>
					</trkpt>
					<trkpt lat="42.548710" lon="2.404260">
						<ele>838</ele>
						<time>2025-07-16T17:52:15Z</time>
					</trkpt>
					<trkpt lat="42.548530" lon="2.404190">
						<ele>845</ele>
						<time>2025-07-16T17:52:24Z</time>
					</trkpt>
					<trkpt lat="42.548350" lon="2.403850">
						<ele>849</ele>
						<time>2025-07-16T17:52:40Z</time>
					</trkpt>
					<trkpt lat="42.548280" lon="2.403650">
						<ele>849</ele>
						<time>2025-07-16T17:52:48Z</time>
					</trkpt>
					<trkpt lat="42.548170" lon="2.403450">
						<ele>848</ele>
						<time>2025-07-16T17:52:57Z</time>
					</trkpt>
					<trkpt lat="42.548080" lon="2.403370">
						<ele>848</ele>
						<time>2025-07-16T17:53:03Z</time>
					</trkpt>
					<trkpt lat="42.548060" lon="2.403370">
						<ele>848</ele>
						<time>2025-07-16T17:53:04Z</time>
					</trkpt>
					<trkpt lat="42.548130" lon="2.403550">
						<ele>849</ele>
						<time>2025-07-16T17:53:11Z</time>
					</trkpt>
					<trkpt lat="42.548170" lon="2.403790">
						<ele>852</ele>
						<time>2025-07-16T17:53:20Z</time>
					</trkpt>
					<trkpt lat="42.548200" lon="2.404230">
						<ele>855</ele>
						<time>2025-07-16T17:53:36Z</time>
					</trkpt>
					<trkpt lat="42.548170" lon="2.404340">
						<ele>856</ele>
						<time>2025-07-16T17:53:41Z</time>
					</trkpt>
					<trkpt lat="42.548020" lon="2.404480">
						<ele>859</ele>
						<time>2025-07-16T17:53:50Z</time>
					</trkpt>
					<trkpt lat="42.547770" lon="2.404560">
						<ele>865</ele>
						<time>2025-07-16T17:54:03Z</time>
					</trkpt>
					<trkpt lat="42.547650" lon="2.404580">
						<ele>868</ele>
						<time>2025-07-16T17:54:09Z</time>
					</trkpt>
					<trkpt lat="42.547490" lon="2.404760">
						<ele>873</ele>
						<time>2025-07-16T17:54:19Z</time>
					</trkpt>
					<trkpt lat="42.547380" lon="2.404890">
						<ele>873</ele>
						<time>2025-07-16T17:54:27Z</time>
					</trkpt>
					<trkpt lat="42.547150" lon="2.405270">
						<ele>874</ele>
						<time>2025-07-16T17:54:45Z</time>
					</trkpt>
					<trkpt lat="42.547030" lon="2.405400">
						<ele>875</ele>
						<time>2025-07-16T17:54:52Z</time>
					</trkpt>
					<trkpt lat="42.546920" lon="2.405470">
						<ele>876</ele>
						<time>2025-07-16T17:54:58Z</time>
					</trkpt>
					<trkpt lat="42.546800" lon="2.405600">
						<ele>879</ele>
						<time>2025-07-16T17:55:06Z</time>
					</trkpt>
					<trkpt lat="42.546620" lon="2.405890">
						<ele>884</ele>
						<time>2025-07-16T17:55:20Z</time>
					</trkpt>
					<trkpt lat="42.546460" lon="2.406190">
						<ele>884</ele>
						<time>2025-07-16T17:55:34Z</time>
					</trkpt>
					<trkpt lat="42.546210" lon="2.406550">
						<ele>887</ele>
						<time>2025-07-16T17:55:52Z</time>
					</trkpt>
					<trkpt lat="42.545990" lon="2.406900">
						<ele>894</ele>
						<time>2025-07-16T17:56:09Z</time>
					</trkpt>
					<trkpt lat="42.545920" lon="2.406960">
						<ele>896</ele>
						<time>2025-07-16T17:56:13Z</time>
					</trkpt>
					<trkpt lat="42.545890" lon="2.407000">
						<ele>897</ele>
						<time>2025-07-16T17:56:15Z</time>
					</trkpt>
					<trkpt lat="42.545880" lon="2.407060">
						<ele>899</ele>
						<time>2025-07-16T17:56:17Z</time>
					</trkpt>
					<trkpt lat="42.545920" lon="2.407210">
						<ele>900</ele>
						<time>2025-07-16T17:56:23Z</time>
					</trkpt>
					<trkpt lat="42.545910" lon="2.407540">
						<ele>907</ele>
						<time>2025-07-16T17:56:36Z</time>
					</trkpt>
					<trkpt lat="42.545940" lon="2.407870">
						<ele>913</ele>
						<time>2025-07-16T17:56:48Z</time>
					</trkpt>
					<trkpt lat="42.545940" lon="2.408000">
						<ele>915</ele>
						<time>2025-07-16T17:56:53Z</time>
					</trkpt>
					<trkpt lat="42.545880" lon="2.408230">
						<ele>923</ele>
						<time>2025-07-16T17:57:02Z</time>
					</trkpt>
					<trkpt lat="42.545850" lon="2.408460">
						<ele>929</ele>
						<time>2025-07-16T17:57:10Z</time>
					</trkpt>
					<trkpt lat="42.545870" lon="2.408740">
						<ele>934</ele>
						<time>2025-07-16T17:57:21Z</time>
					</trkpt>
					<trkpt lat="42.545850" lon="2.408870">
						<ele>937</ele>
						<time>2025-07-16T17:57:25Z</time>
					</trkpt>
					<trkpt lat="42.545850" lon="2.409300">
						<ele>946</ele>
						<time>2025-07-16T17:57:41Z</time>
					</trkpt>
					<trkpt lat="42.545920" lon="2.409670">
						<ele>950</ele>
						<time>2025-07-16T17:57:55Z</time>
					</trkpt>
					<trkpt lat="42.545910" lon="2.409880">
						<ele>955</ele>
						<time>2025-07-16T17:58:03Z</time>
					</trkpt>
					<trkpt lat="42.545960" lon="2.410050">
						<ele>956</ele>
						<time>2025-07-16T17:58:10Z</time>
					</trkpt>
					<trkpt lat="42.545990" lon="2.410260">
						<ele>960</ele>
						<time>2025-07-16T17:58:18Z</time>
					</trkpt>
					<trkpt lat="42.546140" lon="2.410710">
						<ele>962</ele>
						<time>2025-07-16T17:58:36Z</time>
					</trkpt>
					<trkpt lat="42.546160" lon="2.410980">
						<ele>968</ele>
						<time>2025-07-16T17:58:46Z</time>
					</trkpt>
					<trkpt lat="42.546140" lon="2.410990">
						<ele>969</ele>
						<time>2025-07-16T17:58:47Z</time>
					</trkpt>
					<trkpt lat="42.546080" lon="2.410910">
						<ele>970</ele>
						<time>2025-07-16T17:58:51Z</time>
					</trkpt>
					<trkpt lat="42.545950" lon="2.410820">
						<ele>975</ele>
						<time>2025-07-16T17:58:59Z</time>
					</trkpt>
					<trkpt lat="42.545830" lon="2.410700">
						<ele>979</ele>
						<time>2025-07-16T17:59:06Z</time>
					</trkpt>
					<trkpt lat="42.545590" lon="2.410510">
						<ele>985</ele>
						<time>2025-07-16T17:59:20Z</time>
					</trkpt>
					<trkpt lat="42.545350" lon="2.410190">
						<ele>988</ele>
						<time>2025-07-16T17:59:37Z</time>
					</trkpt>
					<trkpt lat="42.545100" lon="2.409930">
						<ele>991</ele>
						<time>2025-07-16T17:59:53Z</time>
					</trkpt>
					<trkpt lat="42.544940" lon="2.409850">
						<ele>991</ele>
						<time>2025-07-16T18:00:01Z</time>
					</trkpt>
					<trkpt lat="42.544910" lon="2.409860">
						<ele>991</ele>
						<time>2025-07-16T18:00:03Z</time>
					</trkpt>
					<trkpt lat="42.544920" lon="2.409910">
						<ele>993</ele>
						<time>2025-07-16T18:00:05Z</time>
					</trkpt>
					<trkpt lat="42.545000" lon="2.410060">
						<ele>1000</ele>
						<time>2025-07-16T18:00:11Z</time>
					</trkpt>
					<trkpt lat="42.545020" lon="2.410190">
						<ele>1002</ele>
						<time>2025-07-16T18:00:16Z</time>
					</trkpt>
					<trkpt lat="42.545090" lon="2.410270">
						<ele>1001</ele>
						<time>2025-07-16T18:00:21Z</time>
					</trkpt>
					<trkpt lat="42.545100" lon="2.410510">
						<ele>1007</ele>
						<time>2025-07-16T18:00:30Z</time>
					</trkpt>
					<trkpt lat="42.545180" lon="2.410920">
						<ele>1014</ele>
						<time>2025-07-16T18:00:45Z</time>
					</trkpt>
					<trkpt lat="42.545250" lon="2.411150">
						<ele>1016</ele>
						<time>2025-07-16T18:00:54Z</time>
					</trkpt>
					<trkpt lat="42.545320" lon="2.411300">
						<ele>1016</ele>
						<time>2025-07-16T18:01:01Z</time>
					</trkpt>
					<trkpt lat="42.545340" lon="2.411500">
						<ele>1019</ele>
						<time>2025-07-16T18:01:08Z</time>
					</trkpt>
					<trkpt lat="42.545320" lon="2.411560">
						<ele>1021</ele>
						<time>2025-07-16T18:01:11Z</time>
					</trkpt>
					<trkpt lat="42.545280" lon="2.411600">
						<ele>1024</ele>
						<time>2025-07-16T18:01:13Z</time>
					</trkpt>
					<trkpt lat="42.545150" lon="2.411610">
						<ele>1029</ele>
						<time>2025-07-16T18:01:20Z</time>
					</trkpt>
					<trkpt lat="42.544990" lon="2.411700">
						<ele>1037</ele>
						<time>2025-07-16T18:01:29Z</time>
					</trkpt>
					<trkpt lat="42.544720" lon="2.411770">
						<ele>1045</ele>
						<time>2025-07-16T18:01:42Z</time>
					</trkpt>
					<trkpt lat="42.544630" lon="2.411850">
						<ele>1049</ele>
						<time>2025-07-16T18:01:48Z</time>
					</trkpt>
					<trkpt lat="42.544560" lon="2.412050">
						<ele>1056</ele>
						<time>2025-07-16T18:01:56Z</time>
					</trkpt>
					<trkpt lat="42.544530" lon="2.412230">
						<ele>1062</ele>
						<time>2025-07-16T18:02:03Z</time>
					</trkpt>
					<trkpt lat="42.544580" lon="2.412630">
						<ele>1072</ele>
						<time>2025-07-16T18:02:18Z</time>
					</trkpt>
					<trkpt lat="42.544500" lon="2.412950">
						<ele>1082</ele>
						<time>2025-07-16T18:02:30Z</time>
					</trkpt>
					<trkpt lat="42.544510" lon="2.413040">
						<ele>1085</ele>
						<time>2025-07-16T18:02:33Z</time>
					</trkpt>
					<trkpt lat="42.544480" lon="2.413300">
						<ele>1092</ele>
						<time>2025-07-16T18:02:43Z</time>
					</trkpt>
					<trkpt lat="42.544340" lon="2.413640">
						<ele>1099</ele>
						<time>2025-07-16T18:02:58Z</time>
					</trkpt>
					<trkpt lat="42.544290" lon="2.413720">
						<ele>1101</ele>
						<time>2025-07-16T18:03:01Z</time>
					</trkpt>
					<trkpt lat="42.544250" lon="2.413880">
						<ele>1103</ele>
						<time>2025-07-16T18:03:08Z</time>
					</trkpt>
					<trkpt lat="42.544230" lon="2.413910">
						<ele>1104</ele>
						<time>2025-07-16T18:03:09Z</time>
					</trkpt>
					<trkpt lat="42.544250" lon="2.413950">
						<ele>1104</ele>
						<time>2025-07-16T18:03:11Z</time>
					</trkpt>
					<trkpt lat="42.544400" lon="2.413940">
						<ele>1106</ele>
						<time>2025-07-16T18:03:18Z</time>
					</trkpt>
					<trkpt lat="42.544520" lon="2.413960">
						<ele>1107</ele>
						<time>2025-07-16T18:03:24Z</time>
					</trkpt>
					<trkpt lat="42.544650" lon="2.413890">
						<ele>1107</ele>
						<time>2025-07-16T18:03:31Z</time>
					</trkpt>
					<trkpt lat="42.544720" lon="2.413890">
						<ele>1107</ele>
						<time>2025-07-16T18:03:35Z</time>
					</trkpt>
					<trkpt lat="42.544810" lon="2.413840">
						<ele>1106</ele>
						<time>2025-07-16T18:03:40Z</time>
					</trkpt>
					<trkpt lat="42.544830" lon="2.413870">
						<ele>1107</ele>
						<time>2025-07-16T18:03:41Z</time>
					</trkpt>
					<trkpt lat="42.544820" lon="2.413940">
						<ele>1109</ele>
						<time>2025-07-16T18:03:44Z</time>
					</trkpt>
					<trkpt lat="42.544760" lon="2.414010">
						<ele>1111</ele>
						<time>2025-07-16T18:03:48Z</time>
					</trkpt>
					<trkpt lat="42.544560" lon="2.414170">
						<ele>1112</ele>
						<time>2025-07-16T18:04:00Z</time>
					</trkpt>
					<trkpt lat="42.544430" lon="2.414340">
						<ele>1116</ele>
						<time>2025-07-16T18:04:09Z</time>
					</trkpt>
					<trkpt lat="42.544290" lon="2.414670">
						<ele>1124</ele>
						<time>2025-07-16T18:04:23Z</time>
					</trkpt>
					<trkpt lat="42.544230" lon="2.414730">
						<ele>1125</ele>
						<time>2025-07-16T18:04:26Z</time>
					</trkpt>
					<trkpt lat="42.544090" lon="2.414790">
						<ele>1128</ele>
						<time>2025-07-16T18:04:34Z</time>
					</trkpt>
					<trkpt lat="42.543930" lon="2.414800">
						<ele>1134</ele>
						<time>2025-07-16T18:04:42Z</time>
					</trkpt>
					<trkpt lat="42.543770" lon="2.414770">
						<ele>1138</ele>
						<time>2025-07-16T18:04:50Z</time>
					</trkpt>
					<trkpt lat="42.543710" lon="2.414700">
						<ele>1138</ele>
						<time>2025-07-16T18:04:54Z</time>
					</trkpt>
					<trkpt lat="42.543680" lon="2.414630">
						<ele>1138</ele>
						<time>2025-07-16T18:04:57Z</time>
					</trkpt>
					<trkpt lat="42.543660" lon="2.414620">
						<ele>1138</ele>
						<time>2025-07-16T18:04:58Z</time>
					</trkpt>
					<trkpt lat="42.543650" lon="2.414670">
						<ele>1140</ele>
						<time>2025-07-16T18:05:00Z</time>
					</trkpt>
					<trkpt lat="42.543680" lon="2.414850">
						<ele>1143</ele>
						<time>2025-07-16T18:05:06Z</time>
					</trkpt>
					<trkpt lat="42.543680" lon="2.414890">
						<ele>1144</ele>
						<time>2025-07-16T18:05:08Z</time>
					</trkpt>
					<trkpt lat="42.543650" lon="2.414890">
						<ele>1145</ele>
						<time>2025-07-16T18:05:09Z</time>
					</trkpt>
					<trkpt lat="42.543620" lon="2.414870">
						<ele>1145</ele>
						<time>2025-07-16T18:05:11Z</time>
					</trkpt>
					<trkpt lat="42.543570" lon="2.414780">
						<ele>1145</ele>
						<time>2025-07-16T18:05:15Z</time>
					</trkpt>
					<trkpt lat="42.543570" lon="2.414690">
						<ele>1143</ele>
						<time>2025-07-16T18:05:19Z</time>
					</trkpt>
					<trkpt lat="42.543560" lon="2.414670">
						<ele>1143</ele>
						<time>2025-07-16T18:05:20Z</time>
					</trkpt>
					<trkpt lat="42.543540" lon="2.414680">
						<ele>1144</ele>
						<time>2025-07-16T18:05:21Z</time>
					</trkpt>
					<trkpt lat="42.543510" lon="2.414930">
						<ele>1150</ele>
						<time>2025-07-16T18:05:30Z</time>
					</trkpt>
					<trkpt lat="42.543530" lon="2.415110">
						<ele>1154</ele>
						<time>2025-07-16T18:05:37Z</time>
					</trkpt>
					<trkpt lat="42.543580" lon="2.415170">
						<ele>1154</ele>
						<time>2025-07-16T18:05:40Z</time>
					</trkpt>
					<trkpt lat="42.543570" lon="2.415190">
						<ele>1155</ele>
						<time>2025-07-16T18:05:41Z</time>
					</trkpt>
					<trkpt lat="42.543520" lon="2.415190">
						<ele>1156</ele>
						<time>2025-07-16T18:05:43Z</time>
					</trkpt>
					<trkpt lat="42.543400" lon="2.415000">
						<ele>1155</ele>
						<time>2025-07-16T18:05:53Z</time>
					</trkpt>
					<trkpt lat="42.543360" lon="2.414910">
						<ele>1154</ele>
						<time>2025-07-16T18:05:56Z</time>
					</trkpt>
					<trkpt lat="42.543350" lon="2.414920">
						<ele>1155</ele>
						<time>2025-07-16T18:05:57Z</time>
					</trkpt>
					<trkpt lat="42.543330" lon="2.415010">
						<ele>1157</ele>
						<time>2025-07-16T18:06:01Z</time>
					</trkpt>
					<trkpt lat="42.543340" lon="2.415150">
						<ele>1160</ele>
						<time>2025-07-16T18:06:06Z</time>
					</trkpt>
					<trkpt lat="42.543410" lon="2.415440">
						<ele>1165</ele>
						<time>2025-07-16T18:06:17Z</time>
					</trkpt>
					<trkpt lat="42.543540" lon="2.415540">
						<ele>1165</ele>
						<time>2025-07-16T18:06:24Z</time>
					</trkpt>
					<trkpt lat="42.543540" lon="2.415570">
						<ele>1166</ele>
						<time>2025-07-16T18:06:26Z</time>
					</trkpt>
					<trkpt lat="42.543310" lon="2.415610">
						<ele>1170</ele>
						<time>2025-07-16T18:06:37Z</time>
					</trkpt>
					<trkpt lat="42.543090" lon="2.415330">
						<ele>1173</ele>
						<time>2025-07-16T18:06:52Z</time>
					</trkpt>
					<trkpt lat="42.543070" lon="2.415320">
						<ele>1174</ele>
						<time>2025-07-16T18:06:53Z</time>
					</trkpt>
					<trkpt lat="42.543050" lon="2.415340">
						<ele>1175</ele>
						<time>2025-07-16T18:06:55Z</time>
					</trkpt>
					<trkpt lat="42.543030" lon="2.415500">
						<ele>1178</ele>
						<time>2025-07-16T18:07:01Z</time>
					</trkpt>
					<trkpt lat="42.543060" lon="2.415580">
						<ele>1178</ele>
						<time>2025-07-16T18:07:04Z</time>
					</trkpt>
					<trkpt lat="42.543120" lon="2.415930">
						<ele>1184</ele>
						<time>2025-07-16T18:07:17Z</time>
					</trkpt>
					<trkpt lat="42.543200" lon="2.416160">
						<ele>1190</ele>
						<time>2025-07-16T18:07:26Z</time>
					</trkpt>
					<trkpt lat="42.543230" lon="2.416210">
						<ele>1191</ele>
						<time>2025-07-16T18:07:29Z</time>
					</trkpt>
					<trkpt lat="42.543220" lon="2.416220">
						<ele>1191</ele>
						<time>2025-07-16T18:07:29Z</time>
					</trkpt>
					<trkpt lat="42.543060" lon="2.416160">
						<ele>1194</ele>
						<time>2025-07-16T18:07:38Z</time>
					</trkpt>
					<trkpt lat="42.542940" lon="2.416030">
						<ele>1193</ele>
						<time>2025-07-16T18:07:45Z</time>
					</trkpt>
					<trkpt lat="42.542850" lon="2.415970">
						<ele>1193</ele>
						<time>2025-07-16T18:07:50Z</time>
					</trkpt>
					<trkpt lat="42.542730" lon="2.415750">
						<ele>1192</ele>
						<time>2025-07-16T18:08:01Z</time>
					</trkpt>
					<trkpt lat="42.542720" lon="2.415480">
						<ele>1189</ele>
						<time>2025-07-16T18:08:11Z</time>
					</trkpt>
					<trkpt lat="42.542700" lon="2.415380">
						<ele>1189</ele>
						<time>2025-07-16T18:08:14Z</time>
					</trkpt>
					<trkpt lat="42.542710" lon="2.415260">
						<ele>1187</ele>
						<time>2025-07-16T18:08:19Z</time>
					</trkpt>
					<trkpt lat="42.542700" lon="2.415200">
						<ele>1187</ele>
						<time>2025-07-16T18:08:21Z</time>
					</trkpt>
					<trkpt lat="42.542610" lon="2.415130">
						<ele>1190</ele>
						<time>2025-07-16T18:08:26Z</time>
					</trkpt>
					<trkpt lat="42.542560" lon="2.415020">
						<ele>1191</ele>
						<time>2025-07-16T18:08:31Z</time>
					</trkpt>
					<trkpt lat="42.542510" lon="2.414970">
						<ele>1193</ele>
						<time>2025-07-16T18:08:34Z</time>
					</trkpt>
					<trkpt lat="42.542460" lon="2.414980">
						<ele>1192</ele>
						<time>2025-07-16T18:08:37Z</time>
					</trkpt>
					<trkpt lat="42.542430" lon="2.415090">
						<ele>1192</ele>
						<time>2025-07-16T18:08:41Z</time>
					</trkpt>
					<trkpt lat="42.542340" lon="2.415150">
						<ele>1189</ele>
						<time>2025-07-16T18:08:46Z</time>
					</trkpt>
					<trkpt lat="42.542420" lon="2.415250">
						<ele>1193</ele>
						<time>2025-07-16T18:08:51Z</time>
					</trkpt>
					<trkpt lat="42.542390" lon="2.415360">
						<ele>1193</ele>
						<time>2025-07-16T18:08:56Z</time>
					</trkpt>
					<trkpt lat="42.542390" lon="2.415460">
						<ele>1193</ele>
						<time>2025-07-16T18:08:59Z</time>
					</trkpt>
					<trkpt lat="42.542250" lon="2.415810">
						<ele>1193</ele>
						<time>2025-07-16T18:09:14Z</time>
					</trkpt>
					<trkpt lat="42.542270" lon="2.415990">
						<ele>1197</ele>
						<time>2025-07-16T18:09:21Z</time>
					</trkpt>
					<trkpt lat="42.542220" lon="2.416200">
						<ele>1201</ele>
						<time>2025-07-16T18:09:29Z</time>
					</trkpt>
					<trkpt lat="42.542200" lon="2.416350">
						<ele>1204</ele>
						<time>2025-07-16T18:09:35Z</time>
					</trkpt>
					<trkpt lat="42.542220" lon="2.416410">
						<ele>1206</ele>
						<time>2025-07-16T18:09:37Z</time>
					</trkpt>
					<trkpt lat="42.542200" lon="2.416510">
						<ele>1208</ele>
						<time>2025-07-16T18:09:41Z</time>
					</trkpt>
					<trkpt lat="42.542110" lon="2.416640">
						<ele>1207</ele>
						<time>2025-07-16T18:09:47Z</time>
					</trkpt>
					<trkpt lat="42.542060" lon="2.416760">
						<ele>1207</ele>
						<time>2025-07-16T18:09:53Z</time>
					</trkpt>
					<trkpt lat="42.542060" lon="2.416840">
						<ele>1208</ele>
						<time>2025-07-16T18:09:55Z</time>
					</trkpt>
					<trkpt lat="42.541990" lon="2.417040">
						<ele>1208</ele>
						<time>2025-07-16T18:10:04Z</time>
					</trkpt>
					<trkpt lat="42.542000" lon="2.417100">
						<ele>1209</ele>
						<time>2025-07-16T18:10:06Z</time>
					</trkpt>
					<trkpt lat="42.542030" lon="2.417100">
						<ele>1211</ele>
						<time>2025-07-16T18:10:07Z</time>
					</trkpt>
					<trkpt lat="42.542100" lon="2.417020">
						<ele>1213</ele>
						<time>2025-07-16T18:10:12Z</time>
					</trkpt>
					<trkpt lat="42.542160" lon="2.416970">
						<ele>1214</ele>
						<time>2025-07-16T18:10:16Z</time>
					</trkpt>
					<trkpt lat="42.542270" lon="2.416960">
						<ele>1219</ele>
						<time>2025-07-16T18:10:21Z</time>
					</trkpt>
					<trkpt lat="42.542320" lon="2.417030">
						<ele>1222</ele>
						<time>2025-07-16T18:10:25Z</time>
					</trkpt>
					<trkpt lat="42.542370" lon="2.417250">
						<ele>1229</ele>
						<time>2025-07-16T18:10:33Z</time>
					</trkpt>
					<trkpt lat="42.542460" lon="2.417450">
						<ele>1237</ele>
						<time>2025-07-16T18:10:42Z</time>
					</trkpt>
					<trkpt lat="42.542600" lon="2.417670">
						<ele>1246</ele>
						<time>2025-07-16T18:10:52Z</time>
					</trkpt>
					<trkpt lat="42.542690" lon="2.417730">
						<ele>1248</ele>
						<time>2025-07-16T18:10:58Z</time>
					</trkpt>
					<trkpt lat="42.542730" lon="2.417810">
						<ele>1251</ele>
						<time>2025-07-16T18:11:01Z</time>
					</trkpt>
					<trkpt lat="42.542800" lon="2.417850">
						<ele>1252</ele>
						<time>2025-07-16T18:11:05Z</time>
					</trkpt>
					<trkpt lat="42.542840" lon="2.417930">
						<ele>1256</ele>
						<time>2025-07-16T18:11:08Z</time>
					</trkpt>
					<trkpt lat="42.542990" lon="2.418130">
						<ele>1264</ele>
						<time>2025-07-16T18:11:19Z</time>
					</trkpt>
					<trkpt lat="42.543240" lon="2.418330">
						<ele>1275</ele>
						<time>2025-07-16T18:11:33Z</time>
					</trkpt>
					<trkpt lat="42.543340" lon="2.418360">
						<ele>1277</ele>
						<time>2025-07-16T18:11:39Z</time>
					</trkpt>
					<trkpt lat="42.543470" lon="2.418430">
						<ele>1281</ele>
						<time>2025-07-16T18:11:46Z</time>
					</trkpt>
					<trkpt lat="42.543490" lon="2.418460">
						<ele>1282</ele>
						<time>2025-07-16T18:11:47Z</time>
					</trkpt>
					<trkpt lat="42.543470" lon="2.418520">
						<ele>1285</ele>
						<time>2025-07-16T18:11:50Z</time>
					</trkpt>
					<trkpt lat="42.543490" lon="2.418530">
						<ele>1286</ele>
						<time>2025-07-16T18:11:51Z</time>
					</trkpt>
					<trkpt lat="42.543540" lon="2.418500">
						<ele>1285</ele>
						<time>2025-07-16T18:11:53Z</time>
					</trkpt>
					<trkpt lat="42.543560" lon="2.418510">
						<ele>1285</ele>
						<time>2025-07-16T18:11:54Z</time>
					</trkpt>
					<trkpt lat="42.543550" lon="2.418550">
						<ele>1287</ele>
						<time>2025-07-16T18:11:56Z</time>
					</trkpt>
					<trkpt lat="42.543470" lon="2.418630">
						<ele>1290</ele>
						<time>2025-07-16T18:12:01Z</time>
					</trkpt>
					<trkpt lat="42.543480" lon="2.418650">
						<ele>1291</ele>
						<time>2025-07-16T18:12:02Z</time>
					</trkpt>
					<trkpt lat="42.543580" lon="2.418650">
						<ele>1292</ele>
						<time>2025-07-16T18:12:07Z</time>
					</trkpt>
					<trkpt lat="42.543600" lon="2.418670">
						<ele>1293</ele>
						<time>2025-07-16T18:12:08Z</time>
					</trkpt>
					<trkpt lat="42.543590" lon="2.418700">
						<ele>1294</ele>
						<time>2025-07-16T18:12:09Z</time>
					</trkpt>
					<trkpt lat="42.543510" lon="2.418780">
						<ele>1298</ele>
						<time>2025-07-16T18:12:14Z</time>
					</trkpt>
					<trkpt lat="42.543380" lon="2.418790">
						<ele>1298</ele>
						<time>2025-07-16T18:12:21Z</time>
					</trkpt>
					<trkpt lat="42.543260" lon="2.418780">
						<ele>1295</ele>
						<time>2025-07-16T18:12:27Z</time>
					</trkpt>
					<trkpt lat="42.543120" lon="2.418830">
						<ele>1295</ele>
						<time>2025-07-16T18:12:34Z</time>
					</trkpt>
					<trkpt lat="42.543070" lon="2.418870">
						<ele>1295</ele>
						<time>2025-07-16T18:12:37Z</time>
					</trkpt>
					<trkpt lat="42.543080" lon="2.418890">
						<ele>1296</ele>
						<time>2025-07-16T18:12:38Z</time>
					</trkpt>
					<trkpt lat="42.543180" lon="2.418920">
						<ele>1300</ele>
						<time>2025-07-16T18:12:43Z</time>
					</trkpt>
					<trkpt lat="42.543240" lon="2.418910">
						<ele>1301</ele>
						<time>2025-07-16T18:12:46Z</time>
					</trkpt>
					<trkpt lat="42.543290" lon="2.418930">
						<ele>1303</ele>
						<time>2025-07-16T18:12:49Z</time>
					</trkpt>
					<trkpt lat="42.543370" lon="2.418930">
						<ele>1304</ele>
						<time>2025-07-16T18:12:53Z</time>
					</trkpt>
					<trkpt lat="42.543410" lon="2.418960">
						<ele>1306</ele>
						<time>2025-07-16T18:12:55Z</time>
					</trkpt>
					<trkpt lat="42.543450" lon="2.419020">
						<ele>1309</ele>
						<time>2025-07-16T18:12:58Z</time>
					</trkpt>
					<trkpt lat="42.543540" lon="2.419110">
						<ele>1313</ele>
						<time>2025-07-16T18:13:03Z</time>
					</trkpt>
					<trkpt lat="42.543570" lon="2.419180">
						<ele>1316</ele>
						<time>2025-07-16T18:13:06Z</time>
					</trkpt>
					<trkpt lat="42.543590" lon="2.419190">
						<ele>1317</ele>
						<time>2025-07-16T18:13:08Z</time>
					</trkpt>
					<trkpt lat="42.543690" lon="2.419180">
						<ele>1317</ele>
						<time>2025-07-16T18:13:13Z</time>
					</trkpt>
					<trkpt lat="42.543790" lon="2.419130">
						<ele>1315</ele>
						<time>2025-07-16T18:13:18Z</time>
					</trkpt>
					<trkpt lat="42.543830" lon="2.419120">
						<ele>1315</ele>
						<time>2025-07-16T18:13:20Z</time>
					</trkpt>
					<trkpt lat="42.543840" lon="2.419150">
						<ele>1316</ele>
						<time>2025-07-16T18:13:21Z</time>
					</trkpt>
					<trkpt lat="42.543810" lon="2.419220">
						<ele>1318</ele>
						<time>2025-07-16T18:13:24Z</time>
					</trkpt>
					<trkpt lat="42.543690" lon="2.419300">
						<ele>1320</ele>
						<time>2025-07-16T18:13:31Z</time>
					</trkpt>
					<trkpt lat="42.543600" lon="2.419400">
						<ele>1323</ele>
						<time>2025-07-16T18:13:37Z</time>
					</trkpt>
					<trkpt lat="42.543530" lon="2.419440">
						<ele>1324</ele>
						<time>2025-07-16T18:13:40Z</time>
					</trkpt>
					<trkpt lat="42.543410" lon="2.419360">
						<ele>1321</ele>
						<time>2025-07-16T18:13:47Z</time>
					</trkpt>
					<trkpt lat="42.543350" lon="2.419360">
						<ele>1321</ele>
						<time>2025-07-16T18:13:50Z</time>
					</trkpt>
					<trkpt lat="42.543030" lon="2.419470">
						<ele>1315</ele>
						<time>2025-07-16T18:14:07Z</time>
					</trkpt>
					<trkpt lat="42.543010" lon="2.419520">
						<ele>1316</ele>
						<time>2025-07-16T18:14:09Z</time>
					</trkpt>
					<trkpt lat="42.543020" lon="2.419600">
						<ele>1319</ele>
						<time>2025-07-16T18:14:12Z</time>
					</trkpt>
					<trkpt lat="42.543080" lon="2.419860">
						<ele>1328</ele>
						<time>2025-07-16T18:14:22Z</time>
					</trkpt>
					<trkpt lat="42.542970" lon="2.420510">
						<ele>1346</ele>
						<time>2025-07-16T18:14:46Z</time>
					</trkpt>
					<trkpt lat="42.542820" lon="2.420880">
						<ele>1354</ele>
						<time>2025-07-16T18:15:02Z</time>
					</trkpt>
					<trkpt lat="42.542690" lon="2.421060">
						<ele>1354</ele>
						<time>2025-07-16T18:15:11Z</time>
					</trkpt>
					<trkpt lat="42.542610" lon="2.421200">
						<ele>1354</ele>
						<time>2025-07-16T18:15:18Z</time>
					</trkpt>
					<trkpt lat="42.542580" lon="2.421340">
						<ele>1356</ele>
						<time>2025-07-16T18:15:23Z</time>
					</trkpt>
					<trkpt lat="42.542580" lon="2.421450">
						<ele>1358</ele>
						<time>2025-07-16T18:15:27Z</time>
					</trkpt>
					<trkpt lat="42.542620" lon="2.421550">
						<ele>1362</ele>
						<time>2025-07-16T18:15:31Z</time>
					</trkpt>
					<trkpt lat="42.542620" lon="2.422280">
						<ele>1372</ele>
						<time>2025-07-16T18:15:58Z</time>
					</trkpt>
					<trkpt lat="42.542670" lon="2.422630">
						<ele>1379</ele>
						<time>2025-07-16T18:16:11Z</time>
					</trkpt>
					<trkpt lat="42.542770" lon="2.422890">
						<ele>1386</ele>
						<time>2025-07-16T18:16:22Z</time>
					</trkpt>
					<trkpt lat="42.542790" lon="2.423140">
						<ele>1390</ele>
						<time>2025-07-16T18:16:32Z</time>
					</trkpt>
					<trkpt lat="42.542770" lon="2.423250">
						<ele>1390</ele>
						<time>2025-07-16T18:16:36Z</time>
					</trkpt>
					<trkpt lat="42.542740" lon="2.423330">
						<ele>1389</ele>
						<time>2025-07-16T18:16:39Z</time>
					</trkpt>
					<trkpt lat="42.542740" lon="2.423410">
						<ele>1390</ele>
						<time>2025-07-16T18:16:42Z</time>
					</trkpt>
					<trkpt lat="42.542830" lon="2.423560">
						<ele>1397</ele>
						<time>2025-07-16T18:16:49Z</time>
					</trkpt>
					<trkpt lat="42.542860" lon="2.423640">
						<ele>1400</ele>
						<time>2025-07-16T18:16:52Z</time>
					</trkpt>
					<trkpt lat="42.542870" lon="2.423710">
						<ele>1402</ele>
						<time>2025-07-16T18:16:55Z</time>
					</trkpt>
					<trkpt lat="42.542920" lon="2.423870">
						<ele>1407</ele>
						<time>2025-07-16T18:17:01Z</time>
					</trkpt>
					<trkpt lat="42.542930" lon="2.424270">
						<ele>1413</ele>
						<time>2025-07-16T18:17:16Z</time>
					</trkpt>
					<trkpt lat="42.542950" lon="2.424480">
						<ele>1417</ele>
						<time>2025-07-16T18:17:24Z</time>
					</trkpt>
					<trkpt lat="42.542950" lon="2.424950">
						<ele>1423</ele>
						<time>2025-07-16T18:17:41Z</time>
					</trkpt>
					<trkpt lat="42.542880" lon="2.425230">
						<ele>1422</ele>
						<time>2025-07-16T18:17:52Z</time>
					</trkpt>
					<trkpt lat="42.542860" lon="2.425450">
						<ele>1424</ele>
						<time>2025-07-16T18:18:00Z</time>
					</trkpt>
					<trkpt lat="42.542860" lon="2.425570">
						<ele>1426</ele>
						<time>2025-07-16T18:18:05Z</time>
					</trkpt>
					<trkpt lat="42.542890" lon="2.425730">
						<ele>1431</ele>
						<time>2025-07-16T18:18:11Z</time>
					</trkpt>
					<trkpt lat="42.542890" lon="2.426050">
						<ele>1439</ele>
						<time>2025-07-16T18:18:23Z</time>
					</trkpt>
					<trkpt lat="42.542920" lon="2.426160">
						<ele>1445</ele>
						<time>2025-07-16T18:18:27Z</time>
					</trkpt>
					<trkpt lat="42.542890" lon="2.426350">
						<ele>1448</ele>
						<time>2025-07-16T18:18:34Z</time>
					</trkpt>
					<trkpt lat="42.542830" lon="2.426510">
						<ele>1447</ele>
						<time>2025-07-16T18:18:41Z</time>
					</trkpt>
					<trkpt lat="42.542730" lon="2.426670">
						<ele>1441</ele>
						<time>2025-07-16T18:18:49Z</time>
					</trkpt>
					<trkpt lat="42.542630" lon="2.427020">
						<ele>1440</ele>
						<time>2025-07-16T18:19:02Z</time>
					</trkpt>
					<trkpt lat="42.542600" lon="2.427200">
						<ele>1441</ele>
						<time>2025-07-16T18:19:09Z</time>
					</trkpt>
					<trkpt lat="42.542640" lon="2.427580">
						<ele>1457</ele>
						<time>2025-07-16T18:19:23Z</time>
					</trkpt>
					<trkpt lat="42.542630" lon="2.427690">
						<ele>1460</ele>
						<time>2025-07-16T18:19:27Z</time>
					</trkpt>
					<trkpt lat="42.542610" lon="2.427790">
						<ele>1461</ele>
						<time>2025-07-16T18:19:31Z</time>
					</trkpt>
					<trkpt lat="42.542640" lon="2.428070">
						<ele>1474</ele>
						<time>2025-07-16T18:19:42Z</time>
					</trkpt>
					<trkpt lat="42.542630" lon="2.428140">
						<ele>1476</ele>
						<time>2025-07-16T18:19:44Z</time>
					</trkpt>
					<trkpt lat="42.542540" lon="2.428340">
						<ele>1473</ele>
						<time>2025-07-16T18:19:53Z</time>
					</trkpt>
					<trkpt lat="42.542320" lon="2.428480">
						<ele>1458</ele>
						<time>2025-07-16T18:20:05Z</time>
					</trkpt>
					<trkpt lat="42.542260" lon="2.428600">
						<ele>1456</ele>
						<time>2025-07-16T18:20:10Z</time>
					</trkpt>
					<trkpt lat="42.542240" lon="2.428840">
						<ele>1460</ele>
						<time>2025-07-16T18:20:19Z</time>
					</trkpt>
					<trkpt lat="42.542220" lon="2.428950">
						<ele>1460</ele>
						<time>2025-07-16T18:20:24Z</time>
					</trkpt>
					<trkpt lat="42.542230" lon="2.429050">
						<ele>1463</ele>
						<time>2025-07-16T18:20:27Z</time>
					</trkpt>
					<trkpt lat="42.542270" lon="2.429090">
						<ele>1467</ele>
						<time>2025-07-16T18:20:30Z</time>
					</trkpt>
					<trkpt lat="42.542280" lon="2.429130">
						<ele>1469</ele>
						<time>2025-07-16T18:20:31Z</time>
					</trkpt>
					<trkpt lat="42.542280" lon="2.429310">
						<ele>1472</ele>
						<time>2025-07-16T18:20:38Z</time>
					</trkpt>
					<trkpt lat="42.542340" lon="2.429590">
						<ele>1481</ele>
						<time>2025-07-16T18:20:49Z</time>
					</trkpt>
					<trkpt lat="42.542420" lon="2.429770">
						<ele>1489</ele>
						<time>2025-07-16T18:20:56Z</time>
					</trkpt>
					<trkpt lat="42.542430" lon="2.429860">
						<ele>1492</ele>
						<time>2025-07-16T18:21:00Z</time>
					</trkpt>
					<trkpt lat="42.542490" lon="2.429970">
						<ele>1498</ele>
						<time>2025-07-16T18:21:05Z</time>
					</trkpt>
					<trkpt lat="42.542440" lon="2.430080">
						<ele>1495</ele>
						<time>2025-07-16T18:21:10Z</time>
					</trkpt>
					<trkpt lat="42.542420" lon="2.430240">
						<ele>1495</ele>
						<time>2025-07-16T18:21:16Z</time>
					</trkpt>
					<trkpt lat="42.542440" lon="2.430450">
						<ele>1498</ele>
						<time>2025-07-16T18:21:23Z</time>
					</trkpt>
					<trkpt lat="42.542460" lon="2.430510">
						<ele>1499</ele>
						<time>2025-07-16T18:21:26Z</time>
					</trkpt>
					<trkpt lat="42.542450" lon="2.430630">
						<ele>1500</ele>
						<time>2025-07-16T18:21:30Z</time>
					</trkpt>
					<trkpt lat="42.542380" lon="2.430810">
						<ele>1496</ele>
						<time>2025-07-16T18:21:38Z</time>
					</trkpt>
					<trkpt lat="42.542380" lon="2.431070">
						<ele>1499</ele>
						<time>2025-07-16T18:21:47Z</time>
					</trkpt>
					<trkpt lat="42.542420" lon="2.431140">
						<ele>1502</ele>
						<time>2025-07-16T18:21:51Z</time>
					</trkpt>
					<trkpt lat="42.542490" lon="2.431160">
						<ele>1506</ele>
						<time>2025-07-16T18:21:54Z</time>
					</trkpt>
					<trkpt lat="42.542640" lon="2.431300">
						<ele>1518</ele>
						<time>2025-07-16T18:22:03Z</time>
					</trkpt>
					<trkpt lat="42.542680" lon="2.431360">
						<ele>1521</ele>
						<time>2025-07-16T18:22:06Z</time>
					</trkpt>
					<trkpt lat="42.542710" lon="2.431480">
						<ele>1524</ele>
						<time>2025-07-16T18:22:11Z</time>
					</trkpt>
					<trkpt lat="42.542720" lon="2.431590">
						<ele>1526</ele>
						<time>2025-07-16T18:22:15Z</time>
					</trkpt>
					<trkpt lat="42.542670" lon="2.431720">
						<ele>1524</ele>
						<time>2025-07-16T18:22:20Z</time>
					</trkpt>
					<trkpt lat="42.542730" lon="2.431920">
						<ele>1535</ele>
						<time>2025-07-16T18:22:28Z</time>
					</trkpt>
					<trkpt lat="42.542720" lon="2.432040">
						<ele>1538</ele>
						<time>2025-07-16T18:22:33Z</time>
					</trkpt>
					<trkpt lat="42.542660" lon="2.432140">
						<ele>1537</ele>
						<time>2025-07-16T18:22:38Z</time>
					</trkpt>
					<trkpt lat="42.542590" lon="2.432230">
						<ele>1535</ele>
						<time>2025-07-16T18:22:42Z</time>
					</trkpt>
					<trkpt lat="42.542520" lon="2.432390">
						<ele>1536</ele>
						<time>2025-07-16T18:22:49Z</time>
					</trkpt>
					<trkpt lat="42.542460" lon="2.432470">
						<ele>1536</ele>
						<time>2025-07-16T18:22:54Z</time>
					</trkpt>
					<trkpt lat="42.542400" lon="2.432580">
						<ele>1540</ele>
						<time>2025-07-16T18:22:59Z</time>
					</trkpt>
					<trkpt lat="42.542330" lon="2.432640">
						<ele>1542</ele>
						<time>2025-07-16T18:23:03Z</time>
					</trkpt>
					<trkpt lat="42.542250" lon="2.432640">
						<ele>1541</ele>
						<time>2025-07-16T18:23:07Z</time>
					</trkpt>
					<trkpt lat="42.542150" lon="2.432700">
						<ele>1542</ele>
						<time>2025-07-16T18:23:12Z</time>
					</trkpt>
					<trkpt lat="42.541820" lon="2.432660">
						<ele>1533</ele>
						<time>2025-07-16T18:23:29Z</time>
					</trkpt>
					<trkpt lat="42.541770" lon="2.432690">
						<ele>1534</ele>
						<time>2025-07-16T18:23:32Z</time>
					</trkpt>
					<trkpt lat="42.541690" lon="2.432690">
						<ele>1532</ele>
						<time>2025-07-16T18:23:36Z</time>
					</trkpt>
					<trkpt lat="42.541650" lon="2.432640">
						<ele>1529</ele>
						<time>2025-07-16T18:23:38Z</time>
					</trkpt>
					<trkpt lat="42.541560" lon="2.432590">
						<ele>1526</ele>
						<time>2025-07-16T18:23:43Z</time>
					</trkpt>
					<trkpt lat="42.541520" lon="2.432610">
						<ele>1527</ele>
						<time>2025-07-16T18:23:45Z</time>
					</trkpt>
					<trkpt lat="42.541380" lon="2.432770">
						<ele>1536</ele>
						<time>2025-07-16T18:23:54Z</time>
					</trkpt>
					<trkpt lat="42.540930" lon="2.433080">
						<ele>1545</ele>
						<time>2025-07-16T18:24:20Z</time>
					</trkpt>
					<trkpt lat="42.540660" lon="2.433220">
						<ele>1553</ele>
						<time>2025-07-16T18:24:34Z</time>
					</trkpt>
					<trkpt lat="42.540460" lon="2.433390">
						<ele>1564</ele>
						<time>2025-07-16T18:24:46Z</time>
					</trkpt>
					<trkpt lat="42.540390" lon="2.433390">
						<ele>1566</ele>
						<time>2025-07-16T18:24:49Z</time>
					</trkpt>
					<trkpt lat="42.540370" lon="2.433330">
						<ele>1564</ele>
						<time>2025-07-16T18:24:52Z</time>
					</trkpt>
					<trkpt lat="42.540330" lon="2.433320">
						<ele>1564</ele>
						<time>2025-07-16T18:24:54Z</time>
					</trkpt>
					<trkpt lat="42.540320" lon="2.433380">
						<ele>1567</ele>
						<time>2025-07-16T18:24:56Z</time>
					</trkpt>
					<trkpt lat="42.540260" lon="2.433400">
						<ele>1570</ele>
						<time>2025-07-16T18:24:59Z</time>
					</trkpt>
					<trkpt lat="42.540270" lon="2.433310">
						<ele>1566</ele>
						<time>2025-07-16T18:25:03Z</time>
					</trkpt>
					<trkpt lat="42.540220" lon="2.433320">
						<ele>1567</ele>
						<time>2025-07-16T18:25:05Z</time>
					</trkpt>
					<trkpt lat="42.540200" lon="2.433380">
						<ele>1570</ele>
						<time>2025-07-16T18:25:08Z</time>
					</trkpt>
					<trkpt lat="42.540170" lon="2.433320">
						<ele>1569</ele>
						<time>2025-07-16T18:25:10Z</time>
					</trkpt>
					<trkpt lat="42.540120" lon="2.433420">
						<ele>1574</ele>
						<time>2025-07-16T18:25:15Z</time>
					</trkpt>
					<trkpt lat="42.540070" lon="2.433380">
						<ele>1573</ele>
						<time>2025-07-16T18:25:18Z</time>
					</trkpt>
					<trkpt lat="42.540050" lon="2.433420">
						<ele>1575</ele>
						<time>2025-07-16T18:25:19Z</time>
					</trkpt>
					<trkpt lat="42.539990" lon="2.433390">
						<ele>1576</ele>
						<time>2025-07-16T18:25:23Z</time>
					</trkpt>
					<trkpt lat="42.539980" lon="2.433460">
						<ele>1579</ele>
						<time>2025-07-16T18:25:25Z</time>
					</trkpt>
					<trkpt lat="42.540000" lon="2.433490">
						<ele>1579</ele>
						<time>2025-07-16T18:25:27Z</time>
					</trkpt>
					<trkpt lat="42.539940" lon="2.433520">
						<ele>1583</ele>
						<time>2025-07-16T18:25:30Z</time>
					</trkpt>
					<trkpt lat="42.539920" lon="2.433510">
						<ele>1584</ele>
						<time>2025-07-16T18:25:31Z</time>
					</trkpt>
					<trkpt lat="42.539880" lon="2.433550">
						<ele>1587</ele>
						<time>2025-07-16T18:25:33Z</time>
					</trkpt>
					<trkpt lat="42.539840" lon="2.433530">
						<ele>1588</ele>
						<time>2025-07-16T18:25:36Z</time>
					</trkpt>
					<trkpt lat="42.539710" lon="2.433620">
						<ele>1597</ele>
						<time>2025-07-16T18:25:43Z</time>
					</trkpt>
					<trkpt lat="42.539660" lon="2.433620">
						<ele>1600</ele>
						<time>2025-07-16T18:25:45Z</time>
					</trkpt>
					<trkpt lat="42.539650" lon="2.433590">
						<ele>1599</ele>
						<time>2025-07-16T18:25:47Z</time>
					</trkpt>
					<trkpt lat="42.539650" lon="2.433500">
						<ele>1597</ele>
						<time>2025-07-16T18:25:50Z</time>
					</trkpt>
					<trkpt lat="42.539620" lon="2.433510">
						<ele>1598</ele>
						<time>2025-07-16T18:25:51Z</time>
					</trkpt>
					<trkpt lat="42.539530" lon="2.433610">
						<ele>1605</ele>
						<time>2025-07-16T18:25:57Z</time>
					</trkpt>
					<trkpt lat="42.539470" lon="2.433580">
						<ele>1607</ele>
						<time>2025-07-16T18:26:00Z</time>
					</trkpt>
					<trkpt lat="42.539560" lon="2.433330">
						<ele>1596</ele>
						<time>2025-07-16T18:26:11Z</time>
					</trkpt>
					<trkpt lat="42.539360" lon="2.433550">
						<ele>1612</ele>
						<time>2025-07-16T18:26:24Z</time>
					</trkpt>
					<trkpt lat="42.539170" lon="2.433850">
						<ele>1627</ele>
						<time>2025-07-16T18:26:38Z</time>
					</trkpt>
					<trkpt lat="42.539120" lon="2.433820">
						<ele>1629</ele>
						<time>2025-07-16T18:26:41Z</time>
					</trkpt>
					<trkpt lat="42.539040" lon="2.433900">
						<ele>1636</ele>
						<time>2025-07-16T18:26:46Z</time>
					</trkpt>
					<trkpt lat="42.538960" lon="2.433880">
						<ele>1641</ele>
						<time>2025-07-16T18:26:50Z</time>
					</trkpt>
					<trkpt lat="42.538890" lon="2.433920">
						<ele>1646</ele>
						<time>2025-07-16T18:26:54Z</time>
					</trkpt>
					<trkpt lat="42.538700" lon="2.434180">
						<ele>1661</ele>
						<time>2025-07-16T18:27:07Z</time>
					</trkpt>
					<trkpt lat="42.538630" lon="2.434310">
						<ele>1667</ele>
						<time>2025-07-16T18:27:13Z</time>
					</trkpt>
					<trkpt lat="42.538570" lon="2.434490">
						<ele>1672</ele>
						<time>2025-07-16T18:27:21Z</time>
					</trkpt>
					<trkpt lat="42.538550" lon="2.434680">
						<ele>1675</ele>
						<time>2025-07-16T18:27:28Z</time>
					</trkpt>
					<trkpt lat="42.538490" lon="2.434900">
						<ele>1679</ele>
						<time>2025-07-16T18:27:36Z</time>
					</trkpt>
					<trkpt lat="42.538510" lon="2.435070">
						<ele>1681</ele>
						<time>2025-07-16T18:27:43Z</time>
					</trkpt>
					<trkpt lat="42.538490" lon="2.435120">
						<ele>1683</ele>
						<time>2025-07-16T18:27:45Z</time>
					</trkpt>
					<trkpt lat="42.538520" lon="2.435200">
						<ele>1684</ele>
						<time>2025-07-16T18:27:48Z</time>
					</trkpt>
					<trkpt lat="42.538470" lon="2.435330">
						<ele>1687</ele>
						<time>2025-07-16T18:27:53Z</time>
					</trkpt>
					<trkpt lat="42.538390" lon="2.435270">
						<ele>1686</ele>
						<time>2025-07-16T18:27:58Z</time>
					</trkpt>
					<trkpt lat="42.538320" lon="2.435370">
						<ele>1689</ele>
						<time>2025-07-16T18:28:03Z</time>
					</trkpt>
					<trkpt lat="42.538250" lon="2.435180">
						<ele>1692</ele>
						<time>2025-07-16T18:28:11Z</time>
					</trkpt>
					<trkpt lat="42.538330" lon="2.435130">
						<ele>1685</ele>
						<time>2025-07-16T18:28:15Z</time>
					</trkpt>
					<trkpt lat="42.538270" lon="2.434970">
						<ele>1688</ele>
						<time>2025-07-16T18:28:22Z</time>
					</trkpt>
					<trkpt lat="42.538240" lon="2.434810">
						<ele>1690</ele>
						<time>2025-07-16T18:28:28Z</time>
					</trkpt>
					<trkpt lat="42.538250" lon="2.434620">
						<ele>1689</ele>
						<time>2025-07-16T18:28:35Z</time>
					</trkpt>
					<trkpt lat="42.538200" lon="2.434450">
						<ele>1692</ele>
						<time>2025-07-16T18:28:42Z</time>
					</trkpt>
					<trkpt lat="42.538190" lon="2.434330">
						<ele>1693</ele>
						<time>2025-07-16T18:28:46Z</time>
					</trkpt>
					<trkpt lat="42.538230" lon="2.434270">
						<ele>1690</ele>
						<time>2025-07-16T18:28:49Z</time>
					</trkpt>
					<trkpt lat="42.538160" lon="2.434160">
						<ele>1695</ele>
						<time>2025-07-16T18:28:55Z</time>
					</trkpt>
					<trkpt lat="42.538210" lon="2.434030">
						<ele>1691</ele>
						<time>2025-07-16T18:29:00Z</time>
					</trkpt>
					<trkpt lat="42.538230" lon="2.433940">
						<ele>1689</ele>
						<time>2025-07-16T18:29:03Z</time>
					</trkpt>
					<trkpt lat="42.538180" lon="2.433870">
						<ele>1692</ele>
						<time>2025-07-16T18:29:07Z</time>
					</trkpt>
					<trkpt lat="42.538110" lon="2.433840">
						<ele>1697</ele>
						<time>2025-07-16T18:29:11Z</time>
					</trkpt>
					<trkpt lat="42.538050" lon="2.433650">
						<ele>1700</ele>
						<time>2025-07-16T18:29:18Z</time>
					</trkpt>
					<trkpt lat="42.538070" lon="2.433560">
						<ele>1698</ele>
						<time>2025-07-16T18:29:22Z</time>
					</trkpt>
					<trkpt lat="42.538050" lon="2.433510">
						<ele>1699</ele>
						<time>2025-07-16T18:29:24Z</time>
					</trkpt>
					<trkpt lat="42.537750" lon="2.433140">
						<ele>1707</ele>
						<time>2025-07-16T18:29:44Z</time>
					</trkpt>
					<trkpt lat="42.537740" lon="2.433060">
						<ele>1705</ele>
						<time>2025-07-16T18:29:47Z</time>
					</trkpt>
					<trkpt lat="42.537710" lon="2.433030">
						<ele>1705</ele>
						<time>2025-07-16T18:29:49Z</time>
					</trkpt>
					<trkpt lat="42.537690" lon="2.433170">
						<ele>1712</ele>
						<time>2025-07-16T18:29:54Z</time>
					</trkpt>
					<trkpt lat="42.537670" lon="2.433090">
						<ele>1710</ele>
						<time>2025-07-16T18:29:57Z</time>
					</trkpt>
					<trkpt lat="42.537610" lon="2.432970">
						<ele>1708</ele>
						<time>2025-07-16T18:30:03Z</time>
					</trkpt>
					<trkpt lat="42.537560" lon="2.433020">
						<ele>1713</ele>
						<time>2025-07-16T18:30:06Z</time>
					</trkpt>
					<trkpt lat="42.537540" lon="2.433110">
						<ele>1718</ele>
						<time>2025-07-16T18:30:09Z</time>
					</trkpt>
					<trkpt lat="42.537540" lon="2.433400">
						<ele>1729</ele>
						<time>2025-07-16T18:30:20Z</time>
					</trkpt>
					<trkpt lat="42.537520" lon="2.433310">
						<ele>1728</ele>
						<time>2025-07-16T18:30:24Z</time>
					</trkpt>
					<trkpt lat="42.537500" lon="2.433280">
						<ele>1728</ele>
						<time>2025-07-16T18:30:25Z</time>
					</trkpt>
					<trkpt lat="42.537480" lon="2.433390">
						<ele>1731</ele>
						<time>2025-07-16T18:30:29Z</time>
					</trkpt>
					<trkpt lat="42.537420" lon="2.433270">
						<ele>1727</ele>
						<time>2025-07-16T18:30:35Z</time>
					</trkpt>
					<trkpt lat="42.537250" lon="2.433210">
						<ele>1723</ele>
						<time>2025-07-16T18:30:43Z</time>
					</trkpt>
					<trkpt lat="42.537120" lon="2.433220">
						<ele>1723</ele>
						<time>2025-07-16T18:30:50Z</time>
					</trkpt>
					<trkpt lat="42.536990" lon="2.433190">
						<ele>1721</ele>
						<time>2025-07-16T18:30:56Z</time>
					</trkpt>
					<trkpt lat="42.536910" lon="2.433110">
						<ele>1718</ele>
						<time>2025-07-16T18:31:01Z</time>
					</trkpt>
					<trkpt lat="42.536910" lon="2.433150">
						<ele>1719</ele>
						<time>2025-07-16T18:31:03Z</time>
					</trkpt>
					<trkpt lat="42.537030" lon="2.433400">
						<ele>1729</ele>
						<time>2025-07-16T18:31:14Z</time>
					</trkpt>
					<trkpt lat="42.537020" lon="2.433480">
						<ele>1731</ele>
						<time>2025-07-16T18:31:17Z</time>
					</trkpt>
					<trkpt lat="42.537180" lon="2.433640">
						<ele>1735</ele>
						<time>2025-07-16T18:31:27Z</time>
					</trkpt>
					<trkpt lat="42.537240" lon="2.433800">
						<ele>1739</ele>
						<time>2025-07-16T18:31:33Z</time>
					</trkpt>
					<trkpt lat="42.537250" lon="2.434140">
						<ele>1746</ele>
						<time>2025-07-16T18:31:46Z</time>
					</trkpt>
					<trkpt lat="42.537090" lon="2.434560">
						<ele>1754</ele>
						<time>2025-07-16T18:32:03Z</time>
					</trkpt>
					<trkpt lat="42.536940" lon="2.435230">
						<ele>1771</ele>
						<time>2025-07-16T18:32:29Z</time>
					</trkpt>
					<trkpt lat="42.536770" lon="2.435580">
						<ele>1788</ele>
						<time>2025-07-16T18:32:45Z</time>
					</trkpt>
					<trkpt lat="42.536620" lon="2.436070">
						<ele>1806</ele>
						<time>2025-07-16T18:33:04Z</time>
					</trkpt>
					<trkpt lat="42.536510" lon="2.435970">
						<ele>1805</ele>
						<time>2025-07-16T18:33:11Z</time>
					</trkpt>
					<trkpt lat="42.536370" lon="2.436370">
						<ele>1820</ele>
						<time>2025-07-16T18:33:27Z</time>
					</trkpt>
					<trkpt lat="42.536260" lon="2.436150">
						<ele>1815</ele>
						<time>2025-07-16T18:33:37Z</time>
					</trkpt>
					<trkpt lat="42.536200" lon="2.436360">
						<ele>1825</ele>
						<time>2025-07-16T18:33:45Z</time>
					</trkpt>
					<trkpt lat="42.536200" lon="2.436630">
						<ele>1837</ele>
						<time>2025-07-16T18:33:55Z</time>
					</trkpt>
					<trkpt lat="42.536120" lon="2.436840">
						<ele>1848</ele>
						<time>2025-07-16T18:34:04Z</time>
					</trkpt>
					<trkpt lat="42.536150" lon="2.437130">
						<ele>1855</ele>
						<time>2025-07-16T18:34:15Z</time>
					</trkpt>
					<trkpt lat="42.536130" lon="2.437500">
						<ele>1867</ele>
						<time>2025-07-16T18:34:28Z</time>
					</trkpt>
					<trkpt lat="42.535910" lon="2.437050">
						<ele>1866</ele>
						<time>2025-07-16T18:34:48Z</time>
					</trkpt>
					<trkpt lat="42.535880" lon="2.437270">
						<ele>1875</ele>
						<time>2025-07-16T18:34:57Z</time>
					</trkpt>
					<trkpt lat="42.535820" lon="2.437180">
						<ele>1875</ele>
						<time>2025-07-16T18:35:01Z</time>
					</trkpt>
					<trkpt lat="42.535770" lon="2.437220">
						<ele>1877</ele>
						<time>2025-07-16T18:35:04Z</time>
					</trkpt>
					<trkpt lat="42.535620" lon="2.437030">
						<ele>1870</ele>
						<time>2025-07-16T18:35:14Z</time>
					</trkpt>
					<trkpt lat="42.535450" lon="2.437210">
						<ele>1879</ele>
						<time>2025-07-16T18:35:25Z</time>
					</trkpt>
					<trkpt lat="42.535450" lon="2.437450">
						<ele>1890</ele>
						<time>2025-07-16T18:35:34Z</time>
					</trkpt>
					<trkpt lat="42.535360" lon="2.437440">
						<ele>1891</ele>
						<time>2025-07-16T18:35:38Z</time>
					</trkpt>
					<trkpt lat="42.535320" lon="2.437620">
						<ele>1898</ele>
						<time>2025-07-16T18:35:45Z</time>
					</trkpt>
					<trkpt lat="42.535370" lon="2.437720">
						<ele>1900</ele>
						<time>2025-07-16T18:35:50Z</time>
					</trkpt>
					<trkpt lat="42.535370" lon="2.437900">
						<ele>1906</ele>
						<time>2025-07-16T18:35:56Z</time>
					</trkpt>
					<trkpt lat="42.535340" lon="2.437950">
						<ele>1908</ele>
						<time>2025-07-16T18:35:59Z</time>
					</trkpt>
					<trkpt lat="42.535350" lon="2.438150">
						<ele>1915</ele>
						<time>2025-07-16T18:36:06Z</time>
					</trkpt>
					<trkpt lat="42.535380" lon="2.438310">
						<ele>1919</ele>
						<time>2025-07-16T18:36:12Z</time>
					</trkpt>
					<trkpt lat="42.535400" lon="2.438400">
						<ele>1921</ele>
						<time>2025-07-16T18:36:16Z</time>
					</trkpt>
					<trkpt lat="42.535410" lon="2.438650">
						<ele>1926</ele>
						<time>2025-07-16T18:36:25Z</time>
					</trkpt>
					<trkpt lat="42.535160" lon="2.438530">
						<ele>1932</ele>
						<time>2025-07-16T18:36:38Z</time>
					</trkpt>
					<trkpt lat="42.535150" lon="2.438610">
						<ele>1934</ele>
						<time>2025-07-16T18:36:41Z</time>
					</trkpt>
					<trkpt lat="42.535230" lon="2.438950">
						<ele>1941</ele>
						<time>2025-07-16T18:36:54Z</time>
					</trkpt>
					<trkpt lat="42.535160" lon="2.439350">
						<ele>1954</ele>
						<time>2025-07-16T18:37:10Z</time>
					</trkpt>
					<trkpt lat="42.535150" lon="2.439440">
						<ele>1956</ele>
						<time>2025-07-16T18:37:13Z</time>
					</trkpt>
					<trkpt lat="42.535110" lon="2.439510">
						<ele>1960</ele>
						<time>2025-07-16T18:37:16Z</time>
					</trkpt>
					<trkpt lat="42.535060" lon="2.440110">
						<ele>1975</ele>
						<time>2025-07-16T18:37:39Z</time>
					</trkpt>
					<trkpt lat="42.535040" lon="2.440300">
						<ele>1979</ele>
						<time>2025-07-16T18:37:46Z</time>
					</trkpt>
					<trkpt lat="42.535000" lon="2.440400">
						<ele>1982</ele>
						<time>2025-07-16T18:37:50Z</time>
					</trkpt>
					<trkpt lat="42.535010" lon="2.440490">
						<ele>1983</ele>
						<time>2025-07-16T18:37:53Z</time>
					</trkpt>
					<trkpt lat="42.535000" lon="2.440660">
						<ele>1986</ele>
						<time>2025-07-16T18:37:59Z</time>
					</trkpt>
					<trkpt lat="42.534950" lon="2.440970">
						<ele>1992</ele>
						<time>2025-07-16T18:38:11Z</time>
					</trkpt>
					<trkpt lat="42.534960" lon="2.441260">
						<ele>1999</ele>
						<time>2025-07-16T18:38:22Z</time>
					</trkpt>
					<trkpt lat="42.534950" lon="2.441440">
						<ele>2004</ele>
						<time>2025-07-16T18:38:28Z</time>
					</trkpt>
					<trkpt lat="42.535010" lon="2.441640">
						<ele>2007</ele>
						<time>2025-07-16T18:38:36Z</time>
					</trkpt>
					<trkpt lat="42.534970" lon="2.441800">
						<ele>2014</ele>
						<time>2025-07-16T18:38:43Z</time>
					</trkpt>
					<trkpt lat="42.535140" lon="2.442020">
						<ele>2018</ele>
						<time>2025-07-16T18:38:54Z</time>
					</trkpt>
					<trkpt lat="42.535360" lon="2.442400">
						<ele>2030</ele>
						<time>2025-07-16T18:39:12Z</time>
					</trkpt>
					<trkpt lat="42.536170" lon="2.443010">
						<ele>2048</ele>
						<time>2025-07-16T18:39:59Z</time>
					</trkpt>
					<trkpt lat="42.536300" lon="2.443050">
						<ele>2049</ele>
						<time>2025-07-16T18:40:05Z</time>
					</trkpt>
					<trkpt lat="42.536390" lon="2.443130">
						<ele>2052</ele>
						<time>2025-07-16T18:40:11Z</time>
					</trkpt>
					<trkpt lat="42.536590" lon="2.443240">
						<ele>2055</ele>
						<time>2025-07-16T18:40:21Z</time>
					</trkpt>
					<trkpt lat="42.536750" lon="2.443370">
						<ele>2057</ele>
						<time>2025-07-16T18:40:31Z</time>
					</trkpt>
					<trkpt lat="42.536910" lon="2.443450">
						<ele>2054</ele>
						<time>2025-07-16T18:40:39Z</time>
					</trkpt>
					<trkpt lat="42.537030" lon="2.443490">
						<ele>2050</ele>
						<time>2025-07-16T18:40:46Z</time>
					</trkpt>
					<trkpt lat="42.537110" lon="2.443570">
						<ele>2048</ele>
						<time>2025-07-16T18:40:50Z</time>
					</trkpt>
					<trkpt lat="42.537110" lon="2.443630">
						<ele>2049</ele>
						<time>2025-07-16T18:40:53Z</time>
					</trkpt>
					<trkpt lat="42.537050" lon="2.443820">
						<ele>2052</ele>
						<time>2025-07-16T18:41:00Z</time>
					</trkpt>
					<trkpt lat="42.536910" lon="2.444110">
						<ele>2063</ele>
						<time>2025-07-16T18:41:13Z</time>
					</trkpt>
					<trkpt lat="42.536820" lon="2.444250">
						<ele>2070</ele>
						<time>2025-07-16T18:41:20Z</time>
					</trkpt>
					<trkpt lat="42.536650" lon="2.444960">
						<ele>2092</ele>
						<time>2025-07-16T18:41:47Z</time>
					</trkpt>
					<trkpt lat="42.536680" lon="2.445130">
						<ele>2092</ele>
						<time>2025-07-16T18:41:54Z</time>
					</trkpt>
					<trkpt lat="42.536690" lon="2.445350">
						<ele>2094</ele>
						<time>2025-07-16T18:42:02Z</time>
					</trkpt>
					<trkpt lat="42.536690" lon="2.445490">
						<ele>2095</ele>
						<time>2025-07-16T18:42:07Z</time>
					</trkpt>
					<trkpt lat="42.536660" lon="2.445630">
						<ele>2099</ele>
						<time>2025-07-16T18:42:13Z</time>
					</trkpt>
					<trkpt lat="42.536720" lon="2.445860">
						<ele>2097</ele>
						<time>2025-07-16T18:42:22Z</time>
					</trkpt>
					<trkpt lat="42.536780" lon="2.445990">
						<ele>2091</ele>
						<time>2025-07-16T18:42:27Z</time>
					</trkpt>
					<trkpt lat="42.536790" lon="2.446100">
						<ele>2089</ele>
						<time>2025-07-16T18:42:31Z</time>
					</trkpt>
					<trkpt lat="42.536720" lon="2.446310">
						<ele>2093</ele>
						<time>2025-07-16T18:42:40Z</time>
					</trkpt>
					<trkpt lat="42.536560" lon="2.446570">
						<ele>2102</ele>
						<time>2025-07-16T18:42:52Z</time>
					</trkpt>
					<trkpt lat="42.536400" lon="2.446740">
						<ele>2114</ele>
						<time>2025-07-16T18:43:03Z</time>
					</trkpt>
					<trkpt lat="42.536390" lon="2.446850">
						<ele>2114</ele>
						<time>2025-07-16T18:43:07Z</time>
					</trkpt>
					<trkpt lat="42.536340" lon="2.446930">
						<ele>2118</ele>
						<time>2025-07-16T18:43:10Z</time>
					</trkpt>
					<trkpt lat="42.536320" lon="2.447100">
						<ele>2119</ele>
						<time>2025-07-16T18:43:17Z</time>
					</trkpt>
					<trkpt lat="42.536280" lon="2.447260">
						<ele>2121</ele>
						<time>2025-07-16T18:43:23Z</time>
					</trkpt>
					<trkpt lat="42.536200" lon="2.447370">
						<ele>2128</ele>
						<time>2025-07-16T18:43:29Z</time>
					</trkpt>
					<trkpt lat="42.536130" lon="2.447580">
						<ele>2135</ele>
						<time>2025-07-16T18:43:37Z</time>
					</trkpt>
					<trkpt lat="42.536080" lon="2.448030">
						<ele>2143</ele>
						<time>2025-07-16T18:43:54Z</time>
					</trkpt>
					<trkpt lat="42.536170" lon="2.448440">
						<ele>2137</ele>
						<time>2025-07-16T18:44:10Z</time>
					</trkpt>
					<trkpt lat="42.536210" lon="2.448830">
						<ele>2134</ele>
						<time>2025-07-16T18:44:24Z</time>
					</trkpt>
					<trkpt lat="42.536190" lon="2.449010">
						<ele>2136</ele>
						<time>2025-07-16T18:44:31Z</time>
					</trkpt>
					<trkpt lat="42.536050" lon="2.449260">
						<ele>2144</ele>
						<time>2025-07-16T18:44:43Z</time>
					</trkpt>
					<trkpt lat="42.535850" lon="2.449440">
						<ele>2155</ele>
						<time>2025-07-16T18:44:55Z</time>
					</trkpt>
					<trkpt lat="42.535600" lon="2.449610">
						<ele>2170</ele>
						<time>2025-07-16T18:45:09Z</time>
					</trkpt>
					<trkpt lat="42.535520" lon="2.449710">
						<ele>2174</ele>
						<time>2025-07-16T18:45:14Z</time>
					</trkpt>
					<trkpt lat="42.535430" lon="2.449950">
						<ele>2177</ele>
						<time>2025-07-16T18:45:24Z</time>
					</trkpt>
					<trkpt lat="42.535430" lon="2.450020">
						<ele>2176</ele>
						<time>2025-07-16T18:45:27Z</time>
					</trkpt>
					<trkpt lat="42.535320" lon="2.450260">
						<ele>2182</ele>
						<time>2025-07-16T18:45:37Z</time>
					</trkpt>
					<trkpt lat="42.535350" lon="2.450910">
						<ele>2173</ele>
						<time>2025-07-16T18:46:01Z</time>
					</trkpt>
					<trkpt lat="42.535030" lon="2.451430">
						<ele>2192</ele>
						<time>2025-07-16T18:46:26Z</time>
					</trkpt>
					<trkpt lat="42.534940" lon="2.451520">
						<ele>2198</ele>
						<time>2025-07-16T18:46:32Z</time>
					</trkpt>
					<trkpt lat="42.534630" lon="2.452510">
						<ele>2214</ele>
						<time>2025-07-16T18:47:11Z</time>
					</trkpt>
					<trkpt lat="42.534610" lon="2.452660">
						<ele>2219</ele>
						<time>2025-07-16T18:47:17Z</time>
					</trkpt>
					<trkpt lat="42.534660" lon="2.452950">
						<ele>2221</ele>
						<time>2025-07-16T18:47:28Z</time>
					</trkpt>
					<trkpt lat="42.534780" lon="2.453380">
						<ele>2222</ele>
						<time>2025-07-16T18:47:45Z</time>
					</trkpt>
					<trkpt lat="42.534820" lon="2.453670">
						<ele>2223</ele>
						<time>2025-07-16T18:47:56Z</time>
					</trkpt>
					<trkpt lat="42.534820" lon="2.453850">
						<ele>2225</ele>
						<time>2025-07-16T18:48:02Z</time>
					</trkpt>
					<trkpt lat="42.534650" lon="2.454490">
						<ele>2236</ele>
						<time>2025-07-16T18:48:27Z</time>
					</trkpt>
					<trkpt lat="42.534530" lon="2.454690">
						<ele>2240</ele>
						<time>2025-07-16T18:48:37Z</time>
					</trkpt>
					<trkpt lat="42.534370" lon="2.454900">
						<ele>2245</ele>
						<time>2025-07-16T18:48:48Z</time>
					</trkpt>
					<trkpt lat="42.534240" lon="2.454950">
						<ele>2250</ele>
						<time>2025-07-16T18:48:55Z</time>
					</trkpt>
					<trkpt lat="42.534040" lon="2.455090">
						<ele>2256</ele>
						<time>2025-07-16T18:49:06Z</time>
					</trkpt>
					<trkpt lat="42.534000" lon="2.455080">
						<ele>2257</ele>
						<time>2025-07-16T18:49:08Z</time>
					</trkpt>
					<trkpt lat="42.533860" lon="2.455120">
						<ele>2261</ele>
						<time>2025-07-16T18:49:15Z</time>
					</trkpt>
					<trkpt lat="42.533620" lon="2.455280">
						<ele>2266</ele>
						<time>2025-07-16T18:49:29Z</time>
					</trkpt>
					<trkpt lat="42.533690" lon="2.454950">
						<ele>2270</ele>
						<time>2025-07-16T18:49:41Z</time>
					</trkpt>
					<trkpt lat="42.533690" lon="2.454870">
						<ele>2271</ele>
						<time>2025-07-16T18:49:44Z</time>
					</trkpt>
					<trkpt lat="42.533710" lon="2.454820">
						<ele>2271</ele>
						<time>2025-07-16T18:49:46Z</time>
					</trkpt>
					<trkpt lat="42.533710" lon="2.454680">
						<ele>2273</ele>
						<time>2025-07-16T18:49:52Z</time>
					</trkpt>
					<trkpt lat="42.533730" lon="2.454640">
						<ele>2273</ele>
						<time>2025-07-16T18:49:53Z</time>
					</trkpt>
					<trkpt lat="42.533720" lon="2.454410">
						<ele>2277</ele>
						<time>2025-07-16T18:50:02Z</time>
					</trkpt>
					<trkpt lat="42.533740" lon="2.454340">
						<ele>2277</ele>
						<time>2025-07-16T18:50:05Z</time>
					</trkpt>
					<trkpt lat="42.533750" lon="2.454250">
						<ele>2278</ele>
						<time>2025-07-16T18:50:08Z</time>
					</trkpt>
					<trkpt lat="42.533730" lon="2.454150">
						<ele>2280</ele>
						<time>2025-07-16T18:50:12Z</time>
					</trkpt>
					<trkpt lat="42.533770" lon="2.454080">
						<ele>2279</ele>
						<time>2025-07-16T18:50:15Z</time>
					</trkpt>
					<trkpt lat="42.533780" lon="2.453760">
						<ele>2280</ele>
						<time>2025-07-16T18:50:27Z</time>
					</trkpt>
					<trkpt lat="42.533750" lon="2.453680">
						<ele>2282</ele>
						<time>2025-07-16T18:50:30Z</time>
					</trkpt>
					<trkpt lat="42.533660" lon="2.453710">
						<ele>2286</ele>
						<time>2025-07-16T18:50:35Z</time>
					</trkpt>
					<trkpt lat="42.533640" lon="2.453780">
						<ele>2287</ele>
						<time>2025-07-16T18:50:38Z</time>
					</trkpt>
					<trkpt lat="42.533490" lon="2.453880">
						<ele>2293</ele>
						<time>2025-07-16T18:50:46Z</time>
					</trkpt>
					<trkpt lat="42.533290" lon="2.454060">
						<ele>2299</ele>
						<time>2025-07-16T18:50:58Z</time>
					</trkpt>
					<trkpt lat="42.533230" lon="2.454070">
						<ele>2301</ele>
						<time>2025-07-16T18:51:01Z</time>
					</trkpt>
					<trkpt lat="42.533160" lon="2.454160">
						<ele>2302</ele>
						<time>2025-07-16T18:51:06Z</time>
					</trkpt>
					<trkpt lat="42.533120" lon="2.454130">
						<ele>2305</ele>
						<time>2025-07-16T18:51:08Z</time>
					</trkpt>
					<trkpt lat="42.533100" lon="2.453110">
						<ele>2322</ele>
						<time>2025-07-16T18:51:46Z</time>
					</trkpt>
					<trkpt lat="42.533060" lon="2.453070">
						<ele>2324</ele>
						<time>2025-07-16T18:51:48Z</time>
					</trkpt>
					<trkpt lat="42.533040" lon="2.452870">
						<ele>2327</ele>
						<time>2025-07-16T18:51:56Z</time>
					</trkpt>
					<trkpt lat="42.532960" lon="2.452410">
						<ele>2334</ele>
						<time>2025-07-16T18:52:13Z</time>
					</trkpt>
					<trkpt lat="42.532930" lon="2.452120">
						<ele>2334</ele>
						<time>2025-07-16T18:52:24Z</time>
					</trkpt>
					<trkpt lat="42.532900" lon="2.452040">
						<ele>2335</ele>
						<time>2025-07-16T18:52:27Z</time>
					</trkpt>
					<trkpt lat="42.532910" lon="2.451840">
						<ele>2334</ele>
						<time>2025-07-16T18:52:35Z</time>
					</trkpt>
					<trkpt lat="42.532890" lon="2.451840">
						<ele>2334</ele>
						<time>2025-07-16T18:52:36Z</time>
					</trkpt>
					<trkpt lat="42.532780" lon="2.452030">
						<ele>2339</ele>
						<time>2025-07-16T18:52:44Z</time>
					</trkpt>
					<trkpt lat="42.532740" lon="2.452120">
						<ele>2341</ele>
						<time>2025-07-16T18:52:48Z</time>
					</trkpt>
					<trkpt lat="42.532630" lon="2.452240">
						<ele>2345</ele>
						<time>2025-07-16T18:52:55Z</time>
					</trkpt>
					<trkpt lat="42.532460" lon="2.452260">
						<ele>2350</ele>
						<time>2025-07-16T18:53:04Z</time>
					</trkpt>
					<trkpt lat="42.532390" lon="2.452300">
						<ele>2351</ele>
						<time>2025-07-16T18:53:08Z</time>
					</trkpt>
					<trkpt lat="42.532280" lon="2.452320">
						<ele>2351</ele>
						<time>2025-07-16T18:53:13Z</time>
					</trkpt>
					<trkpt lat="42.532190" lon="2.452430">
						<ele>2353</ele>
						<time>2025-07-16T18:53:19Z</time>
					</trkpt>
					<trkpt lat="42.532140" lon="2.452440">
						<ele>2353</ele>
						<time>2025-07-16T18:53:22Z</time>
					</trkpt>
					<trkpt lat="42.532050" lon="2.452600">
						<ele>2356</ele>
						<time>2025-07-16T18:53:29Z</time>
					</trkpt>
					<trkpt lat="42.531900" lon="2.452800">
						<ele>2361</ele>
						<time>2025-07-16T18:53:40Z</time>
					</trkpt>
					<trkpt lat="42.531840" lon="2.452850">
						<ele>2363</ele>
						<time>2025-07-16T18:53:43Z</time>
					</trkpt>
					<trkpt lat="42.531610" lon="2.452920">
						<ele>2369</ele>
						<time>2025-07-16T18:53:55Z</time>
					</trkpt>
					<trkpt lat="42.531510" lon="2.453010">
						<ele>2372</ele>
						<time>2025-07-16T18:54:01Z</time>
					</trkpt>
					<trkpt lat="42.531310" lon="2.453120">
						<ele>2377</ele>
						<time>2025-07-16T18:54:12Z</time>
					</trkpt>
					<trkpt lat="42.531170" lon="2.453130">
						<ele>2379</ele>
						<time>2025-07-16T18:54:19Z</time>
					</trkpt>
					<trkpt lat="42.530770" lon="2.453340">
						<ele>2392</ele>
						<time>2025-07-16T18:54:40Z</time>
					</trkpt>
					<trkpt lat="42.530640" lon="2.453370">
						<ele>2395</ele>
						<time>2025-07-16T18:54:47Z</time>
					</trkpt>
					<trkpt lat="42.530540" lon="2.453450">
						<ele>2399</ele>
						<time>2025-07-16T18:54:53Z</time>
					</trkpt>
					<trkpt lat="42.530380" lon="2.453510">
						<ele>2403</ele>
						<time>2025-07-16T18:55:01Z</time>
					</trkpt>
					<trkpt lat="42.529760" lon="2.453640">
						<ele>2417</ele>
						<time>2025-07-16T18:55:33Z</time>
					</trkpt>
					<trkpt lat="42.528730" lon="2.454100">
						<ele>2453</ele>
						<time>2025-07-16T18:56:27Z</time>
					</trkpt>
					<trkpt lat="42.528640" lon="2.454120">
						<ele>2456</ele>
						<time>2025-07-16T18:56:31Z</time>
					</trkpt>
					<trkpt lat="42.528570" lon="2.454120">
						<ele>2458</ele>
						<time>2025-07-16T18:56:35Z</time>
					</trkpt>
					<trkpt lat="42.528450" lon="2.454010">
						<ele>2457</ele>
						<time>2025-07-16T18:56:42Z</time>
					</trkpt>
					<trkpt lat="42.528520" lon="2.454450">
						<ele>2460</ele>
						<time>2025-07-16T18:56:59Z</time>
					</trkpt>
					<trkpt lat="42.528490" lon="2.454560">
						<ele>2461</ele>
						<time>2025-07-16T18:57:03Z</time>
					</trkpt>
					<trkpt lat="42.528450" lon="2.454590">
						<ele>2462</ele>
						<time>2025-07-16T18:57:05Z</time>
					</trkpt>
					<trkpt lat="42.528370" lon="2.454550">
						<ele>2464</ele>
						<time>2025-07-16T18:57:10Z</time>
					</trkpt>
					<trkpt lat="42.528290" lon="2.454430">
						<ele>2466</ele>
						<time>2025-07-16T18:57:16Z</time>
					</trkpt>
					<trkpt lat="42.528160" lon="2.454290">
						<ele>2470</ele>
						<time>2025-07-16T18:57:24Z</time>
					</trkpt>
					<trkpt lat="42.527960" lon="2.454130">
						<ele>2475</ele>
						<time>2025-07-16T18:57:35Z</time>
					</trkpt>
					<trkpt lat="42.527740" lon="2.454030">
						<ele>2478</ele>
						<time>2025-07-16T18:57:47Z</time>
					</trkpt>
					<trkpt lat="42.527370" lon="2.453900">
						<ele>2484</ele>
						<time>2025-07-16T18:58:06Z</time>
					</trkpt>
					<trkpt lat="42.527170" lon="2.453930">
						<ele>2489</ele>
						<time>2025-07-16T18:58:16Z</time>
					</trkpt>
					<trkpt lat="42.526910" lon="2.454020">
						<ele>2497</ele>
						<time>2025-07-16T18:58:30Z</time>
					</trkpt>
					<trkpt lat="42.526560" lon="2.454260">
						<ele>2509</ele>
						<time>2025-07-16T18:58:49Z</time>
					</trkpt>
					<trkpt lat="42.526480" lon="2.454300">
						<ele>2510</ele>
						<time>2025-07-16T18:58:54Z</time>
					</trkpt>
					<trkpt lat="42.526420" lon="2.454310">
						<ele>2510</ele>
						<time>2025-07-16T18:58:57Z</time>
					</trkpt>
					<trkpt lat="42.526340" lon="2.454360">
						<ele>2512</ele>
						<time>2025-07-16T18:59:01Z</time>
					</trkpt>
					<trkpt lat="42.526010" lon="2.454470">
						<ele>2518</ele>
						<time>2025-07-16T18:59:18Z</time>
					</trkpt>
					<trkpt lat="42.525940" lon="2.454470">
						<ele>2519</ele>
						<time>2025-07-16T18:59:22Z</time>
					</trkpt>
					<trkpt lat="42.525870" lon="2.454510">
						<ele>2521</ele>
						<time>2025-07-16T18:59:25Z</time>
					</trkpt>
					<trkpt lat="42.525810" lon="2.454510">
						<ele>2522</ele>
						<time>2025-07-16T18:59:28Z</time>
					</trkpt>
					<trkpt lat="42.525760" lon="2.454540">
						<ele>2524</ele>
						<time>2025-07-16T18:59:31Z</time>
					</trkpt>
					<trkpt lat="42.525640" lon="2.454560">
						<ele>2526</ele>
						<time>2025-07-16T18:59:37Z</time>
					</trkpt>
					<trkpt lat="42.525460" lon="2.454630">
						<ele>2532</ele>
						<time>2025-07-16T18:59:46Z</time>
					</trkpt>
					<trkpt lat="42.525140" lon="2.454700">
						<ele>2539</ele>
						<time>2025-07-16T19:00:03Z</time>
					</trkpt>
					<trkpt lat="42.524980" lon="2.454770">
						<ele>2545</ele>
						<time>2025-07-16T19:00:11Z</time>
					</trkpt>
					<trkpt lat="42.524930" lon="2.454770">
						<ele>2545</ele>
						<time>2025-07-16T19:00:14Z</time>
					</trkpt>
					<trkpt lat="42.524750" lon="2.454850">
						<ele>2550</ele>
						<time>2025-07-16T19:00:23Z</time>
					</trkpt>
					<trkpt lat="42.524190" lon="2.454980">
						<ele>2562</ele>
						<time>2025-07-16T19:00:52Z</time>
					</trkpt>
					<trkpt lat="42.524080" lon="2.455080">
						<ele>2563</ele>
						<time>2025-07-16T19:00:58Z</time>
					</trkpt>
					<trkpt lat="42.523910" lon="2.455160">
						<ele>2564</ele>
						<time>2025-07-16T19:01:07Z</time>
					</trkpt>
					<trkpt lat="42.523650" lon="2.455320">
						<ele>2565</ele>
						<time>2025-07-16T19:01:21Z</time>
					</trkpt>
					<trkpt lat="42.523560" lon="2.455330">
						<ele>2565</ele>
						<time>2025-07-16T19:01:26Z</time>
					</trkpt>
					<trkpt lat="42.523290" lon="2.455530">
						<ele>2568</ele>
						<time>2025-07-16T19:01:41Z</time>
					</trkpt>
					<trkpt lat="42.523040" lon="2.455670">
						<ele>2576</ele>
						<time>2025-07-16T19:01:55Z</time>
					</trkpt>
					<trkpt lat="42.522920" lon="2.455700">
						<ele>2579</ele>
						<time>2025-07-16T19:02:01Z</time>
					</trkpt>
					<trkpt lat="42.522870" lon="2.455700">
						<ele>2580</ele>
						<time>2025-07-16T19:02:04Z</time>
					</trkpt>
					<trkpt lat="42.522770" lon="2.455660">
						<ele>2581</ele>
						<time>2025-07-16T19:02:09Z</time>
					</trkpt>
					<trkpt lat="42.522680" lon="2.455690">
						<ele>2583</ele>
						<time>2025-07-16T19:02:13Z</time>
					</trkpt>
					<trkpt lat="42.522530" lon="2.455650">
						<ele>2585</ele>
						<time>2025-07-16T19:02:21Z</time>
					</trkpt>
					<trkpt lat="42.522360" lon="2.455700">
						<ele>2592</ele>
						<time>2025-07-16T19:02:30Z</time>
					</trkpt>
					<trkpt lat="42.522240" lon="2.455660">
						<ele>2595</ele>
						<time>2025-07-16T19:02:36Z</time>
					</trkpt>
					<trkpt lat="42.521840" lon="2.455470">
						<ele>2605</ele>
						<time>2025-07-16T19:02:57Z</time>
					</trkpt>
					<trkpt lat="42.521480" lon="2.455240">
						<ele>2612</ele>
						<time>2025-07-16T19:03:17Z</time>
					</trkpt>
					<trkpt lat="42.521380" lon="2.455200">
						<ele>2615</ele>
						<time>2025-07-16T19:03:22Z</time>
					</trkpt>
					<trkpt lat="42.521620" lon="2.455680">
						<ele>2620</ele>
						<time>2025-07-16T19:03:44Z</time>
					</trkpt>
					<trkpt lat="42.521470" lon="2.455600">
						<ele>2624</ele>
						<time>2025-07-16T19:03:52Z</time>
					</trkpt>
					<trkpt lat="42.521260" lon="2.455410">
						<ele>2627</ele>
						<time>2025-07-16T19:04:04Z</time>
					</trkpt>
					<trkpt lat="42.521230" lon="2.455410">
						<ele>2628</ele>
						<time>2025-07-16T19:04:06Z</time>
					</trkpt>
					<trkpt lat="42.521350" lon="2.455680">
						<ele>2632</ele>
						<time>2025-07-16T19:04:17Z</time>
					</trkpt>
					<trkpt lat="42.521270" lon="2.455630">
						<ele>2634</ele>
						<time>2025-07-16T19:04:22Z</time>
					</trkpt>
					<trkpt lat="42.521300" lon="2.455700">
						<ele>2635</ele>
						<time>2025-07-16T19:04:25Z</time>
					</trkpt>
					<trkpt lat="42.521260" lon="2.455670">
						<ele>2636</ele>
						<time>2025-07-16T19:04:27Z</time>
					</trkpt>
					<trkpt lat="42.521250" lon="2.455730">
						<ele>2638</ele>
						<time>2025-07-16T19:04:29Z</time>
					</trkpt>
					<trkpt lat="42.521060" lon="2.455750">
						<ele>2648</ele>
						<time>2025-07-16T19:04:39Z</time>
					</trkpt>
					<trkpt lat="42.521000" lon="2.455710">
						<ele>2649</ele>
						<time>2025-07-16T19:04:42Z</time>
					</trkpt>
					<trkpt lat="42.520910" lon="2.455730">
						<ele>2654</ele>
						<time>2025-07-16T19:04:47Z</time>
					</trkpt>
					<trkpt lat="42.520840" lon="2.455680">
						<ele>2655</ele>
						<time>2025-07-16T19:04:51Z</time>
					</trkpt>
					<trkpt lat="42.520600" lon="2.455670">
						<ele>2665</ele>
						<time>2025-07-16T19:05:03Z</time>
					</trkpt>
					<trkpt lat="42.520410" lon="2.455540">
						<ele>2668</ele>
						<time>2025-07-16T19:05:13Z</time>
					</trkpt>
					<trkpt lat="42.520120" lon="2.455400">
						<ele>2674</ele>
						<time>2025-07-16T19:05:29Z</time>
					</trkpt>
					<trkpt lat="42.519650" lon="2.455270">
						<ele>2681</ele>
						<time>2025-07-16T19:05:53Z</time>
					</trkpt>
					<trkpt lat="42.519620" lon="2.455280">
						<ele>2682</ele>
						<time>2025-07-16T19:05:54Z</time>
					</trkpt>
					<trkpt lat="42.519640" lon="2.455330">
						<ele>2684</ele>
						<time>2025-07-16T19:05:57Z</time>
					</trkpt>
					<trkpt lat="42.519720" lon="2.455390">
						<ele>2685</ele>
						<time>2025-07-16T19:06:01Z</time>
					</trkpt>
					<trkpt lat="42.519750" lon="2.455450">
						<ele>2688</ele>
						<time>2025-07-16T19:06:04Z</time>
					</trkpt>
					<trkpt lat="42.519830" lon="2.455510">
						<ele>2689</ele>
						<time>2025-07-16T19:06:08Z</time>
					</trkpt>
					<trkpt lat="42.520270" lon="2.456130">
						<ele>2686</ele>
						<time>2025-07-16T19:06:40Z</time>
					</trkpt>
					<trkpt lat="42.520140" lon="2.456060">
						<ele>2693</ele>
						<time>2025-07-16T19:06:47Z</time>
					</trkpt>
					<trkpt lat="42.519670" lon="2.455920">
						<ele>2709</ele>
						<time>2025-07-16T19:07:11Z</time>
					</trkpt>
					<trkpt lat="42.519590" lon="2.455930">
						<ele>2711</ele>
						<time>2025-07-16T19:07:15Z</time>
					</trkpt>
					<trkpt lat="42.519690" lon="2.456010">
						<ele>2708</ele>
						<time>2025-07-16T19:07:21Z</time>
					</trkpt>
					<trkpt lat="42.519840" lon="2.456230">
						<ele>2704</ele>
						<time>2025-07-16T19:07:32Z</time>
					</trkpt>
					<trkpt lat="42.519370" lon="2.456130">
						<ele>2715</ele>
						<time>2025-07-16T19:07:56Z</time>
					</trkpt>
					<trkpt lat="42.519230" lon="2.456130">
						<ele>2719</ele>
						<time>2025-07-16T19:08:03Z</time>
					</trkpt>
					<trkpt lat="42.519360" lon="2.456240">
						<ele>2715</ele>
						<time>2025-07-16T19:08:11Z</time>
					</trkpt>
					<trkpt lat="42.519480" lon="2.456380">
						<ele>2712</ele>
						<time>2025-07-16T19:08:18Z</time>
					</trkpt>
					<trkpt lat="42.519560" lon="2.456420">
						<ele>2710</ele>
						<time>2025-07-16T19:08:23Z</time>
					</trkpt>
					<trkpt lat="42.519610" lon="2.456490">
						<ele>2709</ele>
						<time>2025-07-16T19:08:26Z</time>
					</trkpt>
					<trkpt lat="42.519210" lon="2.456420">
						<ele>2717</ele>
						<time>2025-07-16T19:08:47Z</time>
					</trkpt>
					<trkpt lat="42.519330" lon="2.456550">
						<ele>2713</ele>
						<time>2025-07-16T19:08:54Z</time>
					</trkpt>
					<trkpt lat="42.519190" lon="2.456530">
						<ele>2716</ele>
						<time>2025-07-16T19:09:01Z</time>
					</trkpt>
					<trkpt lat="42.519130" lon="2.456550">
						<ele>2715</ele>
						<time>2025-07-16T19:09:04Z</time>
					</trkpt>
					<trkpt lat="42.519040" lon="2.456510">
						<ele>2713</ele>
						<time>2025-07-16T19:09:09Z</time>
					</trkpt>
					<trkpt lat="42.518900" lon="2.456550">
						<ele>2709</ele>
						<time>2025-07-16T19:09:16Z</time>
					</trkpt>
					</trkseg>
				</trk>
			</gpx>